country,distance,latitude,_type,fullName,inEurope,type,location_id,countryCode,iata_airport_code,name,_id,key,coreCountry,longitude
Spain,,-79.51869566710393,Position,"Kołodziej, Spain",true,Location,50,ES,,Kołodziej,203,,false,108.31682293304884
Poland,,-86.24121447704604,Position,"Pawlak, Poland",true,Location,50,PL,,Pawlak,204,,true,82.98711402692936
Spain,,-83.34288355194867,Position,"Wasilewska, Spain",true,Location,50,ES,,Wasilewska,205,,true,54.8952412560499
Poland,,-80.19074970395002,Position,"Błaszczyk, Poland",true,Location,50,PL,,Błaszczyk,206,,false,109.40151371436049
Spain,,-8.03893651612023,Position,"Wasilewska, Spain",true,Location,50,ES,,Wasilewska,207,,true,132.7197309045585
"United States of America",,80.37295952701345,Position,"Kowalczyk, United States of America",false,Location,50,US,,Kowalczyk,208,,false,171.7153292298034
Poland,,70.26510916149746,Position,"Sawicki, Poland",true,Location,50,PL,,Sawicki,209,,true,36.146562711645736
Poland,,-86.18294836221745,Position,"Kołodziej, Poland",true,Location,50,PL,,Kołodziej,210,,false,44.763826288240104
"United States of America",,-85.6021098816565,Position,"Bąk, United States of America",false,Location,50,US,,Bąk,211,,true,15.147976379612347
Spain,,53.20609461623482,Position,"Bąk, Spain",true,Location,50,ES,,Bąk,212,,false,43.67318207862661
Poland,,-82.03660529270735,Position,"Przybylski, Poland",true,Location,50,PL,,Przybylski,213,,false,57.750288142422896
Poland,,48.127445836935834,Position,"Pawlak, Poland",true,Location,50,PL,,Pawlak,214,,true,37.1618352001112
Poland,,-66.33019451447782,Position,"Przybylski, Poland",true,Location,50,PL,,Przybylski,215,,true,168.0979357810216
"United States of America",,-81.51761927451628,Position,"Sawicki, United States of America",false,Location,50,US,,Sawicki,216,,true,95.59288104007348
Poland,,34.11507899103009,Position,"Tomaszewski, Poland",true,Location,50,PL,,Tomaszewski,217,,true,105.73567040680561
"United States of America",,-82.23572684847134,Position,"Mróz, United States of America",false,Location,50,US,,Mróz,218,,false,38.96401443420638
Poland,,-3.8044183400323277,Position,"Krawczyk, Poland",true,Location,50,PL,,Krawczyk,219,,false,18.2725747900409
"United States of America",,-77.16961467731687,Position,"Marciniak, United States of America",false,Location,50,US,,Marciniak,220,,false,176.48351503660612
Spain,,-15.694994275692864,Position,"Baran, Spain",true,Location,50,ES,,Baran,221,,false,114.19401109940097
Spain,,-23.059412731348147,Position,"Mazur, Spain",true,Location,50,ES,,Mazur,222,,false,131.3739261695023
Poland,,31.27308290118208,Position,"Marciniak, Poland",true,Location,50,PL,,Marciniak,223,,true,12.221451427485281
"United States of America",,30.88397699354691,Position,"Przybylski, United States of America",false,Location,50,US,,Przybylski,224,,true,171.0694031091863
"United States of America",,27.55705120548896,Position,"Przybylski, United States of America",false,Location,50,US,,Przybylski,225,,false,152.28514729988876
"United States of America",,-10.65632198620041,Position,"Wasilewska, United States of America",false,Location,50,US,,Wasilewska,226,,false,49.02853893564945
Spain,,5.543610872172607,Position,"Mazur, Spain",true,Location,50,ES,,Mazur,227,,true,153.8709167229823
Spain,,-83.73974705527262,Position,"Pawlak, Spain",true,Location,50,ES,,Pawlak,228,,false,28.97119219597534
Spain,,-32.0550243643155,Position,"Kołodziej, Spain",true,Location,50,ES,,Kołodziej,229,,false,134.22982627118373
"United States of America",,-67.15406284982302,Position,"Kołodziej, United States of America",false,Location,50,US,,Kołodziej,230,,true,38.46619859360094
Poland,,81.17997656237128,Position,"Marciniak, Poland",true,Location,50,PL,,Marciniak,231,,false,26.698396560312887
Poland,,-44.92536859414512,Position,"Sawicki, Poland",true,Location,50,PL,,Sawicki,232,,true,176.4460827378783
"United States of America",,-55.68042157349195,Position,"Sawicki, United States of America",false,Location,50,US,,Sawicki,233,,false,136.16690057994487
"United States of America",,58.92673667693191,Position,"Sawicki, United States of America",false,Location,50,US,,Sawicki,234,,true,118.40571579935218
"United States of America",,-12.354101632428296,Position,"Kowalczyk, United States of America",false,Location,50,US,,Kowalczyk,235,,true,49.55473335992753
Spain,,35.403292162106766,Position,"Brzeziński, Spain",true,Location,50,ES,,Brzeziński,236,,true,34.75362452960244
"United States of America",,28.124797746070186,Position,"Marciniak, United States of America",false,Location,50,US,,Marciniak,237,,true,96.00425251279331
Poland,,-70.65955883844734,Position,"Krawczyk, Poland",true,Location,50,PL,,Krawczyk,238,,false,104.02796685572585
"United States of America",,20.124423549779564,Position,"Brzeziński, United States of America",false,Location,50,US,,Brzeziński,239,,true,140.38839431895107
Poland,,-80.64692100164376,Position,"Tomaszewski, Poland",true,Location,50,PL,,Tomaszewski,240,,false,16.46345848142106
Spain,,69.52535207015694,Position,"Mróz, Spain",true,Location,50,ES,,Mróz,241,,false,70.64229530234289
Spain,,-82.1842508620739,Position,"Stępień, Spain",true,Location,50,ES,,Stępień,242,,false,87.70136777187196
Spain,,-31.036999150713974,Position,"Sawicki, Spain",true,Location,50,ES,,Sawicki,243,,true,152.37553161253837
Spain,,52.64904054376288,Position,"Tomaszewski, Spain",true,Location,50,ES,,Tomaszewski,244,,false,108.27139951088388
Poland,,10.318643549791233,Position,"Szewczyk, Poland",true,Location,50,PL,,Szewczyk,245,,false,98.19905038959593
Spain,,21.82149184807382,Position,"Brzeziński, Spain",true,Location,50,ES,,Brzeziński,246,,false,27.842695303057713
Poland,,-68.26712415068629,Position,"Marciniak, Poland",true,Location,50,PL,,Marciniak,247,,true,157.20975656765265
Spain,,-48.10022410849653,Position,"Kowalczyk, Spain",true,Location,50,ES,,Kowalczyk,248,,false,140.14033197707738
Spain,,22.353581647113927,Position,"Krawczyk, Spain",true,Location,50,ES,,Krawczyk,249,,true,25.115611825820736
Poland,,-75.31594396059633,Position,"Bąk, Poland",true,Location,50,PL,,Bąk,250,,false,38.854626927412745
Spain,,-54.249532117688126,Position,"Kowalczyk, Spain",true,Location,50,ES,,Kowalczyk,251,,true,143.55556601370066
"United States of America",,32.950749345509564,Position,"Kowalczyk, United States of America",false,Location,50,US,,Kowalczyk,252,,false,7.832236009035645
Poland,,56.428916040935775,Position,"Mróz, Poland",true,Location,50,PL,,Mróz,253,,true,65.27099029768804
Poland,,-50.40840449351832,Position,"Górski, Poland",true,Location,50,PL,,Górski,254,,false,124.33138048190334
Spain,,-50.84163363562705,Position,"Marciniak, Spain",true,Location,50,ES,,Marciniak,255,,true,10.919284169651668
Spain,,-62.01433350161966,Position,"Błaszczyk, Spain",true,Location,50,ES,,Błaszczyk,256,,false,152.1478201865703
"United States of America",,60.89380603020618,Position,"Sawicki, United States of America",false,Location,50,US,,Sawicki,257,,true,7.485154621558446
Poland,,58.27016707239477,Position,"Marciniak, Poland",true,Location,50,PL,,Marciniak,258,,false,131.97392655583252
Spain,,-5.086371727716283,Position,"Stępień, Spain",true,Location,50,ES,,Stępień,259,,false,60.44148928884144
Poland,,39.28615825419749,Position,"Marciniak, Poland",true,Location,50,PL,,Marciniak,260,,true,109.44012882165872
Spain,,2.4232572419584955,Position,"Marciniak, Spain",true,Location,50,ES,,Marciniak,261,,false,101.03928072191387
"United States of America",,65.36696244148473,Position,"Sawicki, United States of America",false,Location,50,US,,Sawicki,262,,true,29.906101770491617
Poland,,-36.71901097286348,Position,"Błaszczyk, Poland",true,Location,50,PL,,Błaszczyk,263,,true,57.36475470721073
Poland,,-8.190139045254398,Position,"Kołodziej, Poland",true,Location,50,PL,,Kołodziej,264,,true,52.21855209923079
Spain,,-47.308932086992826,Position,"Szewczyk, Spain",true,Location,50,ES,,Szewczyk,265,,false,178.09200571149927
Poland,,-59.174210850260096,Position,"Baran, Poland",true,Location,50,PL,,Baran,266,,false,106.33310008892536
Spain,,54.67873457821315,Position,"Kołodziej, Spain",true,Location,50,ES,,Kołodziej,267,,false,53.18066677340434
Spain,,16.997086629216284,Position,"Kowalczyk, Spain",true,Location,50,ES,,Kowalczyk,268,,false,147.90962755381975
"United States of America",,6.912954660053316,Position,"Sawicki, United States of America",false,Location,50,US,,Sawicki,269,,false,133.12067416273058
Poland,,22.789965301849577,Position,"Błaszczyk, Poland",true,Location,50,PL,,Błaszczyk,270,,true,15.733709392533449
Spain,,-49.02524609923424,Position,"Kowalczyk, Spain",true,Location,50,ES,,Kowalczyk,271,,true,46.7100315683407
Spain,,-33.533783971782675,Position,"Szewczyk, Spain",true,Location,50,ES,,Szewczyk,272,,false,30.091054398141953
Poland,,26.482531024242064,Position,"Baran, Poland",true,Location,50,PL,,Baran,273,,false,37.766451055575594
"United States of America",,-77.18224430133894,Position,"Bąk, United States of America",false,Location,50,US,,Bąk,274,,true,165.02768011527982
Spain,,8.580564203725189,Position,"Przybylski, Spain",true,Location,50,ES,,Przybylski,275,,true,133.6201074770544
Poland,,-52.49200906905095,Position,"Kowalczyk, Poland",true,Location,50,PL,,Kowalczyk,276,,true,178.7652997401855
"United States of America",,-32.82725737437188,Position,"Krajewska, United States of America",false,Location,50,US,,Krajewska,277,,true,24.712195441162415
Poland,,18.445545060811398,Position,"Krawczyk, Poland",true,Location,50,PL,,Krawczyk,278,,false,109.40970510230503
Spain,,-72.05911934539023,Position,"Mróz, Spain",true,Location,50,ES,,Mróz,279,,false,124.13286317650277
Spain,,2.538831643593767,Position,"Przybylski, Spain",true,Location,50,ES,,Przybylski,280,,true,173.4892600100803
"United States of America",,-29.374517889868336,Position,"Tomaszewski, United States of America",false,Location,50,US,,Tomaszewski,281,,true,119.47204347685218
Spain,,61.38387460371831,Position,"Bąk, Spain",true,Location,50,ES,,Bąk,282,,true,75.79132061607288
Spain,,-17.733599800848324,Position,"Szewczyk, Spain",true,Location,50,ES,,Szewczyk,283,,true,6.928088662253115
Spain,,-0.07660741123218884,Position,"Przybylski, Spain",true,Location,50,ES,,Przybylski,284,,true,50.4263040396811
Spain,,-14.898000138563432,Position,"Stępień, Spain",true,Location,50,ES,,Stępień,285,,true,63.22155036971265
Spain,,-27.118498741284625,Position,"Wasilewska, Spain",true,Location,50,ES,,Wasilewska,286,,true,12.042238673613648
Spain,,-21.392503301462597,Position,"Przybylski, Spain",true,Location,50,ES,,Przybylski,287,,true,148.49531707253402
Poland,,33.826432007543744,Position,"Szewczyk, Poland",true,Location,50,PL,,Szewczyk,288,,false,179.63718943579264
"United States of America",,-6.2832486014473545,Position,"Mazur, United States of America",false,Location,50,US,,Mazur,289,,false,120.04734123268454
Spain,,-20.957333519505127,Position,"Kowalczyk, Spain",true,Location,50,ES,,Kowalczyk,290,,true,17.472405803889142
Spain,,38.616414699918664,Position,"Kołodziej, Spain",true,Location,50,ES,,Kołodziej,291,,false,162.4384321319955
Poland,,47.00424508487967,Position,"Bąk, Poland",true,Location,50,PL,,Bąk,292,,false,11.176169250083339
Poland,,-17.37260951820477,Position,"Przybylski, Poland",true,Location,50,PL,,Przybylski,293,,true,106.24518107535617
Spain,,-0.8673186580054164,Position,"Wasilewska, Spain",true,Location,50,ES,,Wasilewska,294,,false,82.24629706028682
Spain,,-89.40429104037112,Position,"Brzeziński, Spain",true,Location,50,ES,,Brzeziński,295,,false,134.4868825626738
"United States of America",,-30.30430258813425,Position,"Krawczyk, United States of America",false,Location,50,US,,Krawczyk,296,,true,65.80879272361221
"United States of America",,-87.09647947175327,Position,"Marciniak, United States of America",false,Location,50,US,,Marciniak,297,,false,78.54529391223534
"United States of America",,55.15702969099834,Position,"Marciniak, United States of America",false,Location,50,US,,Marciniak,298,,false,4.670782182476026
"United States of America",,85.68047792666397,Position,"Krajewska, United States of America",false,Location,50,US,,Krajewska,299,,false,151.21741469549326
"United States of America",,84.02316878060367,Position,"Przybylski, United States of America",false,Location,50,US,,Przybylski,300,,true,7.41770497201927
Spain,,5.046876948466149,Position,"Błaszczyk, Spain",true,Location,50,ES,,Błaszczyk,301,,true,9.393982808718473
Spain,,77.2491082065822,Position,"Mazur, Spain",true,Location,50,ES,,Mazur,302,,false,38.54800936054423
"United States of America",,72.25213426019712,Position,"Baran, United States of America",false,Location,50,US,,Baran,303,,true,98.7402136130339
Spain,,-79.43657600319706,Position,"Brzeziński, Spain",true,Location,50,ES,,Brzeziński,304,,false,159.41293725230895
"United States of America",,61.385578628057914,Position,"Tomaszewski, United States of America",false,Location,50,US,,Tomaszewski,305,,true,166.67027700890395
Spain,,58.65179568979042,Position,"Pawlak, Spain",true,Location,50,ES,,Pawlak,306,,false,153.03467720952384
"United States of America",,87.93135094187738,Position,"Pawlak, United States of America",false,Location,50,US,,Pawlak,307,,false,113.85336270834209
Poland,,11.998633049828953,Position,"Mróz, Poland",true,Location,50,PL,,Mróz,308,,true,116.7130533622555
"United States of America",,35.815152182633,Position,"Mazur, United States of America",false,Location,50,US,,Mazur,309,,false,159.4666781937761
Poland,,-69.67202552766167,Position,"Górski, Poland",true,Location,50,PL,,Górski,310,,false,176.69914715000266
Poland,,-15.252218238712814,Position,"Górski, Poland",true,Location,50,PL,,Górski,311,,false,124.41954570439002
Poland,,14.00769622646088,Position,"Baran, Poland",true,Location,50,PL,,Baran,312,,true,96.11355076305858
Poland,,-57.39107729254414,Position,"Kołodziej, Poland",true,Location,50,PL,,Kołodziej,313,,true,86.8127926988856
"United States of America",,18.485189534951175,Position,"Krawczyk, United States of America",false,Location,50,US,,Krawczyk,314,,true,65.7177546659328
Spain,,-52.66568794039849,Position,"Tomaszewski, Spain",true,Location,50,ES,,Tomaszewski,315,,true,37.96887809352507
"United States of America",,-38.19199114798634,Position,"Stępień, United States of America",false,Location,50,US,,Stępień,316,,false,34.10894266125744
"United States of America",,-43.72952400113499,Position,"Wasilewska, United States of America",false,Location,50,US,,Wasilewska,317,,true,31.47083138686215
Poland,,-83.45043043230937,Position,"Mazur, Poland",true,Location,50,PL,,Mazur,318,,false,124.40176219544558
"United States of America",,-52.7566194780453,Position,"Bąk, United States of America",false,Location,50,US,,Bąk,319,,false,10.78176641896791
"United States of America",,73.00785495895903,Position,"Marciniak, United States of America",false,Location,50,US,,Marciniak,320,,true,174.48493177752712
Spain,,-29.349177620251517,Position,"Tomaszewski, Spain",true,Location,50,ES,,Tomaszewski,321,,false,159.18183008308418
Poland,,-16.625794996236237,Position,"Mróz, Poland",true,Location,50,PL,,Mróz,322,,false,146.49633774833387
Poland,,49.733156223214735,Position,"Marciniak, Poland",true,Location,50,PL,,Marciniak,323,,true,93.95574034556951
Spain,,-17.320458358736417,Position,"Brzeziński, Spain",true,Location,50,ES,,Brzeziński,324,,false,55.2470467476071
Spain,,-78.19707739615613,Position,"Kołodziej, Spain",true,Location,50,ES,,Kołodziej,325,,false,108.99154395018469
"United States of America",,-49.28289948360871,Position,"Bąk, United States of America",false,Location,50,US,,Bąk,326,,false,110.94297368635263
Poland,,-86.37890581354532,Position,"Krajewska, Poland",true,Location,50,PL,,Krajewska,327,,true,46.210122228008196
Spain,,-29.18653795397603,Position,"Krajewska, Spain",true,Location,50,ES,,Krajewska,328,,true,89.70220447663374
Poland,,52.29625317057224,Position,"Stępień, Poland",true,Location,50,PL,,Stępień,329,,false,25.53487814960371
Spain,,28.273887570343504,Position,"Mróz, Spain",true,Location,50,ES,,Mróz,330,,true,43.046771565206576
"United States of America",,33.05263612760518,Position,"Pawlak, United States of America",false,Location,50,US,,Pawlak,331,,false,148.43245619820092
Poland,,90.5632432629346,Position,"Kowalczyk, Poland",true,Location,50,PL,,Kowalczyk,332,,true,26.75953298113969
Poland,,-22.03597837136239,Position,"Przybylski, Poland",true,Location,50,PL,,Przybylski,333,,false,18.40778793754003
Poland,,-15.199567951062889,Position,"Baran, Poland",true,Location,50,PL,,Baran,334,,false,136.2399360009564
"United States of America",,75.28264302766672,Position,"Krajewska, United States of America",false,Location,50,US,,Krajewska,335,,false,99.22061137664808
Spain,,28.94211177240973,Position,"Stępień, Spain",true,Location,50,ES,,Stępień,336,,true,23.76694096542863
"United States of America",,-11.694246297581131,Position,"Wasilewska, United States of America",false,Location,50,US,,Wasilewska,337,,true,128.00557662271214
"United States of America",,55.11051850243655,Position,"Mazur, United States of America",false,Location,50,US,,Mazur,338,,true,102.8829776302421
Spain,,30.817268218096416,Position,"Krawczyk, Spain",true,Location,50,ES,,Krawczyk,339,,false,174.92445560693878
"United States of America",,42.88066912388251,Position,"Błaszczyk, United States of America",false,Location,50,US,,Błaszczyk,340,,true,155.44975922670176
Poland,,-87.98217359160135,Position,"Błaszczyk, Poland",true,Location,50,PL,,Błaszczyk,341,,true,26.456401814767798
"United States of America",,-34.01627418967396,Position,"Błaszczyk, United States of America",false,Location,50,US,,Błaszczyk,342,,true,25.794931716067605
Poland,,-17.486146424916527,Position,"Krawczyk, Poland",true,Location,50,PL,,Krawczyk,343,,true,13.941010272471578
Spain,,-80.19381511744368,Position,"Wasilewska, Spain",true,Location,50,ES,,Wasilewska,344,,true,19.76792799864982
"United States of America",,-25.625310776017614,Position,"Tomaszewski, United States of America",false,Location,50,US,,Tomaszewski,345,,false,80.52905459481619
"United States of America",,21.26870142594295,Position,"Pawlak, United States of America",false,Location,50,US,,Pawlak,346,,true,140.45410460554083
Poland,,-43.513403383574875,Position,"Kołodziej, Poland",true,Location,50,PL,,Kołodziej,347,,false,23.266973154731375
"United States of America",,16.153617047346998,Position,"Przybylski, United States of America",false,Location,50,US,,Przybylski,348,,true,146.75811061864496
Poland,,-26.56663499283195,Position,"Marciniak, Poland",true,Location,50,PL,,Marciniak,349,,true,18.643739775061928
Poland,,86.7169611329345,Position,"Kowalczyk, Poland",true,Location,50,PL,,Kowalczyk,350,,true,100.06064245431766
Poland,,-85.08442755472757,Position,"Marciniak, Poland",true,Location,50,PL,,Marciniak,351,,false,133.56256709160544
Spain,,-34.53152088471287,Position,"Szewczyk, Spain",true,Location,50,ES,,Szewczyk,352,,false,83.67710378950471
Poland,,25.283912044440882,Position,"Szewczyk, Poland",true,Location,50,PL,,Szewczyk,353,,false,177.3649124391288
Poland,,-37.66763920295044,Position,"Kowalczyk, Poland",true,Location,50,PL,,Kowalczyk,354,,false,130.9024088015976
Poland,,-3.893188864970355,Position,"Stępień, Poland",true,Location,50,PL,,Stępień,355,,false,86.23054610432105
"United States of America",,-75.9882832042969,Position,"Mróz, United States of America",false,Location,50,US,,Mróz,356,,true,21.013028659704045
Spain,,19.81851309588359,Position,"Przybylski, Spain",true,Location,50,ES,,Przybylski,357,,true,31.004981191913217
Poland,,-30.728580363624502,Position,"Kowalczyk, Poland",true,Location,50,PL,,Kowalczyk,358,,false,14.715571946271043
Spain,,66.40103472800283,Position,"Szewczyk, Spain",true,Location,50,ES,,Szewczyk,359,,false,51.26434776825471
Poland,,36.026774234414376,Position,"Stępień, Poland",true,Location,50,PL,,Stępień,360,,true,18.180633884910225
"United States of America",,41.74182831255831,Position,"Brzeziński, United States of America",false,Location,50,US,,Brzeziński,361,,true,156.21784565447447
Poland,,80.57964823630789,Position,"Baran, Poland",true,Location,50,PL,,Baran,362,,true,24.981230927121054
Spain,,46.77880703572987,Position,"Mróz, Spain",true,Location,50,ES,,Mróz,363,,false,57.86920866208902
"United States of America",,0.07894936917766415,Position,"Pawlak, United States of America",false,Location,50,US,,Pawlak,364,,true,163.96715848372926
Poland,,74.7952738494856,Position,"Kołodziej, Poland",true,Location,50,PL,,Kołodziej,365,,false,72.71110425534842
Poland,,-47.70098366995511,Position,"Brzeziński, Poland",true,Location,50,PL,,Brzeziński,366,,true,25.349625353073623
"United States of America",,-11.740395333823457,Position,"Stępień, United States of America",false,Location,50,US,,Stępień,367,,false,23.110238413343243
Poland,,-60.87271294706603,Position,"Wasilewska, Poland",true,Location,50,PL,,Wasilewska,368,,false,165.04515442684783
"United States of America",,67.4178886718231,Position,"Baran, United States of America",false,Location,50,US,,Baran,369,,false,12.455941658999375
Spain,,84.73174998188117,Position,"Krajewska, Spain",true,Location,50,ES,,Krajewska,370,,true,42.633156744768065
Spain,,1.4426339391499425,Position,"Baran, Spain",true,Location,50,ES,,Baran,371,,false,37.09130019152012
"United States of America",,21.239043486882224,Position,"Sawicki, United States of America",false,Location,50,US,,Sawicki,372,,true,159.11866687592146
Spain,,35.3164473319046,Position,"Krawczyk, Spain",true,Location,50,ES,,Krawczyk,373,,false,54.023484683368764
Poland,,44.89557566287752,Position,"Baran, Poland",true,Location,50,PL,,Baran,374,,false,61.059832712640635
Poland,,9.786919646330503,Position,"Górski, Poland",true,Location,50,PL,,Górski,375,,true,65.4186109050348
Spain,,-56.89297410930377,Position,"Kowalczyk, Spain",true,Location,50,ES,,Kowalczyk,376,,false,69.51918145127853
Poland,,-78.33254440780524,Position,"Górski, Poland",true,Location,50,PL,,Górski,377,,false,58.926632001570155
"United States of America",,43.45560490184624,Position,"Krajewska, United States of America",false,Location,50,US,,Krajewska,378,,true,87.7283306160259
"United States of America",,65.47837029587117,Position,"Kołodziej, United States of America",false,Location,50,US,,Kołodziej,379,,true,84.95298042658834
Spain,,-23.2201981561892,Position,"Przybylski, Spain",true,Location,50,ES,,Przybylski,380,,true,112.31773779334553
Poland,,66.92372038569755,Position,"Kowalczyk, Poland",true,Location,50,PL,,Kowalczyk,381,,false,91.09619367911726
"United States of America",,77.66799183533396,Position,"Brzeziński, United States of America",false,Location,50,US,,Brzeziński,382,,false,136.45625561748201
"United States of America",,20.981487396248625,Position,"Kołodziej, United States of America",false,Location,50,US,,Kołodziej,383,,true,85.10462333147751
"United States of America",,76.26508087653909,Position,"Górski, United States of America",false,Location,50,US,,Górski,384,,true,44.26964711652044
Spain,,-72.55188923945195,Position,"Krajewska, Spain",true,Location,50,ES,,Krajewska,385,,true,140.8703013394165
"United States of America",,-52.87947367722469,Position,"Mróz, United States of America",false,Location,50,US,,Mróz,386,,true,3.4629124953567114
Poland,,-71.37663726566339,Position,"Sawicki, Poland",true,Location,50,PL,,Sawicki,387,,true,136.17435593765182
"United States of America",,-79.08367657007453,Position,"Krajewska, United States of America",false,Location,50,US,,Krajewska,388,,true,34.158173912302146
"United States of America",,-32.55281892800195,Position,"Krajewska, United States of America",false,Location,50,US,,Krajewska,389,,false,11.125926357465778
Spain,,55.305312481715504,Position,"Pawlak, Spain",true,Location,50,ES,,Pawlak,390,,true,20.578013742075985
Spain,,51.80761906539061,Position,"Górski, Spain",true,Location,50,ES,,Górski,391,,false,47.49521327364081
"United States of America",,-78.23721598431489,Position,"Marciniak, United States of America",false,Location,50,US,,Marciniak,392,,false,112.35362354606752
"United States of America",,-71.07265815516416,Position,"Mazur, United States of America",false,Location,50,US,,Mazur,393,,true,87.43152486236039
Poland,,59.308720931821284,Position,"Wasilewska, Poland",true,Location,50,PL,,Wasilewska,394,,false,34.91772827014244
Poland,,-40.294068572861946,Position,"Krajewska, Poland",true,Location,50,PL,,Krajewska,395,,false,174.37828123194652
Spain,,4.193134048325447,Position,"Krawczyk, Spain",true,Location,50,ES,,Krawczyk,396,,true,85.65421343552063
"United States of America",,-57.35381920685952,Position,"Marciniak, United States of America",false,Location,50,US,,Marciniak,397,,false,139.3495754751273
Spain,,77.15371470604046,Position,"Marciniak, Spain",true,Location,50,ES,,Marciniak,398,,true,63.21950269321056
Poland,,23.52483439220171,Position,"Stępień, Poland",true,Location,50,PL,,Stępień,399,,false,91.11670706060457
"United States of America",,84.65279970738081,Position,"Przybylski, United States of America",false,Location,50,US,,Przybylski,400,,true,39.72518169220146
Spain,,-52.71835765415251,Position,"Baran, Spain",true,Location,50,ES,,Baran,401,,false,42.268021819713404
"United States of America",,-23.4202507453747,Position,"Wasilewska, United States of America",false,Location,50,US,,Wasilewska,402,,true,141.27702309323942
Poland,,-10.304575848606234,Position,"Baran, Poland",true,Location,50,PL,,Baran,403,,true,37.55180886613184
Spain,,50.26521828972432,Position,"Stępień, Spain",true,Location,50,ES,,Stępień,404,,false,148.7024610175404
"United States of America",,-11.708325092198166,Position,"Tomaszewski, United States of America",false,Location,50,US,,Tomaszewski,405,,true,19.389494966611863
Poland,,-83.70460360308192,Position,"Baran, Poland",true,Location,50,PL,,Baran,406,,true,11.16674789253409
Poland,,29.58362702823088,Position,"Krawczyk, Poland",true,Location,50,PL,,Krawczyk,407,,true,136.95511647072053
"United States of America",,-8.462893395319142,Position,"Tomaszewski, United States of America",false,Location,50,US,,Tomaszewski,408,,false,4.777418934273573
Poland,,31.18703397644869,Position,"Brzeziński, Poland",true,Location,50,PL,,Brzeziński,409,,true,39.75719703710775
Poland,,-74.01116534125477,Position,"Mazur, Poland",true,Location,50,PL,,Mazur,410,,true,58.20741075844366
Spain,,-63.43128790648271,Position,"Wasilewska, Spain",true,Location,50,ES,,Wasilewska,411,,false,30.230327678985937
Spain,,35.557970494451354,Position,"Brzeziński, Spain",true,Location,50,ES,,Brzeziński,412,,false,78.82898540193034
"United States of America",,-39.81009436540319,Position,"Tomaszewski, United States of America",false,Location,50,US,,Tomaszewski,413,,false,44.4463926010469
"United States of America",,-23.368634709795742,Position,"Stępień, United States of America",false,Location,50,US,,Stępień,414,,true,67.84391202253148
"United States of America",,-30.412338507522776,Position,"Brzeziński, United States of America",false,Location,50,US,,Brzeziński,415,,true,168.68906489077642
"United States of America",,77.35391262158515,Position,"Sawicki, United States of America",false,Location,50,US,,Sawicki,416,,false,4.419635183330572
Poland,,-64.49903563112551,Position,"Krawczyk, Poland",true,Location,50,PL,,Krawczyk,417,,false,3.300385050444473
"United States of America",,46.859130115566956,Position,"Kołodziej, United States of America",false,Location,50,US,,Kołodziej,418,,true,19.896966525218264
Poland,,9.49308559316988,Position,"Brzeziński, Poland",true,Location,50,PL,,Brzeziński,419,,false,79.90430418527981
"United States of America",,-66.69396361767967,Position,"Brzeziński, United States of America",false,Location,50,US,,Brzeziński,420,,false,6.721587816010743
Poland,,60.64755265975003,Position,"Brzeziński, Poland",true,Location,50,PL,,Brzeziński,421,,true,116.83989356506954
"United States of America",,-82.5318485980147,Position,"Baran, United States of America",false,Location,50,US,,Baran,422,,true,123.8699789613622
Spain,,74.82235995075672,Position,"Mróz, Spain",true,Location,50,ES,,Mróz,423,,true,7.395411709473475
Spain,,-57.206565688781154,Position,"Błaszczyk, Spain",true,Location,50,ES,,Błaszczyk,424,,false,78.18966693296983
Spain,,-14.364359204945501,Position,"Górski, Spain",true,Location,50,ES,,Górski,425,,false,75.22473886908936
Spain,,-80.69212066139035,Position,"Błaszczyk, Spain",true,Location,50,ES,,Błaszczyk,426,,true,59.254472832568915
Poland,,39.825548477841636,Position,"Górski, Poland",true,Location,50,PL,,Górski,427,,false,62.14872018113162
"United States of America",,-82.52893172419778,Position,"Brzeziński, United States of America",false,Location,50,US,,Brzeziński,428,,true,55.0472020149805
Poland,,21.8782206390012,Position,"Tomaszewski, Poland",true,Location,50,PL,,Tomaszewski,429,,true,132.39674665213445
Spain,,-76.89160436753797,Position,"Stępień, Spain",true,Location,50,ES,,Stępień,430,,true,145.0255670071321
Poland,,62.84991253396683,Position,"Górski, Poland",true,Location,50,PL,,Górski,431,,false,119.22747380358433
"United States of America",,-6.157387911524751,Position,"Błaszczyk, United States of America",false,Location,50,US,,Błaszczyk,432,,false,173.90138599919948
Poland,,-39.87723920812713,Position,"Pawlak, Poland",true,Location,50,PL,,Pawlak,433,,false,101.78276201976183
Poland,,59.02644397856821,Position,"Kołodziej, Poland",true,Location,50,PL,,Kołodziej,434,,true,148.76882734195263
Spain,,20.428515033726185,Position,"Pawlak, Spain",true,Location,50,ES,,Pawlak,435,,true,117.97514857297222
Spain,,-68.96159934072281,Position,"Mazur, Spain",true,Location,50,ES,,Mazur,436,,false,104.0544785690981
"United States of America",,-27.14959211086184,Position,"Pawlak, United States of America",false,Location,50,US,,Pawlak,437,,false,27.186704075003995
Poland,,1.945383317043465,Position,"Błaszczyk, Poland",true,Location,50,PL,,Błaszczyk,438,,true,179.12993747079847
Poland,,88.67068017848152,Position,"Marciniak, Poland",true,Location,50,PL,,Marciniak,439,,true,107.56595334975468
"United States of America",,-43.04126702253513,Position,"Krajewska, United States of America",false,Location,50,US,,Krajewska,440,,false,107.32733193253634
Spain,,63.869627554367156,Position,"Baran, Spain",true,Location,50,ES,,Baran,441,,true,173.74952297921416
Poland,,38.8143088051647,Position,"Marciniak, Poland",true,Location,50,PL,,Marciniak,442,,false,5.528606566444671
Poland,,-47.19807285589455,Position,"Mazur, Poland",true,Location,50,PL,,Mazur,443,,false,148.9064984468891
"United States of America",,-23.807409216392884,Position,"Pawlak, United States of America",false,Location,50,US,,Pawlak,444,,true,58.46150080026759
Poland,,3.076817367983452,Position,"Sawicki, Poland",true,Location,50,PL,,Sawicki,445,,true,20.10603579332303
"United States of America",,-60.438559537210175,Position,"Bąk, United States of America",false,Location,50,US,,Bąk,446,,false,72.3281001931866
Spain,,-37.0489897829967,Position,"Baran, Spain",true,Location,50,ES,,Baran,447,,true,48.14249509430793
Spain,,-28.628048556115438,Position,"Stępień, Spain",true,Location,50,ES,,Stępień,448,,false,68.41653339310045
"United States of America",,-80.39328652104498,Position,"Górski, United States of America",false,Location,50,US,,Górski,449,,false,141.11748321939166
"United States of America",,24.366925974635308,Position,"Sawicki, United States of America",false,Location,50,US,,Sawicki,450,,true,98.90178104049834
Poland,,-2.468220541751478,Position,"Szewczyk, Poland",true,Location,50,PL,,Szewczyk,451,,false,28.274403755801693
Spain,,-50.12808802789002,Position,"Brzeziński, Spain",true,Location,50,ES,,Brzeziński,452,,false,163.1286633847971
Spain,,-38.1548943097543,Position,"Sawicki, Spain",true,Location,50,ES,,Sawicki,453,,true,55.808728252816934
Spain,,-3.669722370824502,Position,"Baran, Spain",true,Location,50,ES,,Baran,454,,true,71.2881306133008
Spain,,-14.182542022903036,Position,"Błaszczyk, Spain",true,Location,50,ES,,Błaszczyk,455,,false,51.63592297759126
Poland,,5.016696175311452,Position,"Bąk, Poland",true,Location,50,PL,,Bąk,456,,true,135.54745780372696
Poland,,12.02659229193884,Position,"Kowalczyk, Poland",true,Location,50,PL,,Kowalczyk,457,,false,2.389037309595356
"United States of America",,22.817507615814677,Position,"Szewczyk, United States of America",false,Location,50,US,,Szewczyk,458,,false,150.37558337885227
Spain,,-67.44496763750163,Position,"Krajewska, Spain",true,Location,50,ES,,Krajewska,459,,true,76.23926776146457
"United States of America",,20.20173894295624,Position,"Górski, United States of America",false,Location,50,US,,Górski,460,,true,10.016723062215041
Spain,,-54.60996623175145,Position,"Krajewska, Spain",true,Location,50,ES,,Krajewska,461,,false,167.48530685113363
"United States of America",,87.02321537397233,Position,"Baran, United States of America",false,Location,50,US,,Baran,462,,true,48.80862152028942
"United States of America",,47.71740225040861,Position,"Mazur, United States of America",false,Location,50,US,,Mazur,463,,false,135.2410954278844
"United States of America",,37.59202888862066,Position,"Pawlak, United States of America",false,Location,50,US,,Pawlak,464,,true,155.31613648052365
"United States of America",,64.11429775115704,Position,"Bąk, United States of America",false,Location,50,US,,Bąk,465,,true,172.96666393401512
"United States of America",,11.53270335272839,Position,"Krawczyk, United States of America",false,Location,50,US,,Krawczyk,466,,false,103.05654945291246
"United States of America",,0.7409329818726178,Position,"Baran, United States of America",false,Location,50,US,,Baran,467,,true,79.03298885384423
"United States of America",,5.306813010992201,Position,"Kowalczyk, United States of America",false,Location,50,US,,Kowalczyk,468,,true,127.92998503915673
Poland,,-66.49296608835706,Position,"Marciniak, Poland",true,Location,50,PL,,Marciniak,469,,true,39.98934551241883
Poland,,66.91932228102067,Position,"Stępień, Poland",true,Location,50,PL,,Stępień,470,,true,158.33629241450063
Poland,,-16.15390625933152,Position,"Kołodziej, Poland",true,Location,50,PL,,Kołodziej,471,,true,131.7104588896209
Poland,,15.25086750844622,Position,"Kowalczyk, Poland",true,Location,50,PL,,Kowalczyk,472,,false,78.35942073855628
Spain,,47.16907520690464,Position,"Kowalczyk, Spain",true,Location,50,ES,,Kowalczyk,473,,true,94.14075120672288
Poland,,-48.337803522428985,Position,"Stępień, Poland",true,Location,50,PL,,Stępień,474,,false,31.33070706206128
Spain,,-20.7112220739443,Position,"Mazur, Spain",true,Location,50,ES,,Mazur,475,,false,19.92429627445071
Spain,,17.002453248189227,Position,"Bąk, Spain",true,Location,50,ES,,Bąk,476,,true,91.54464801375828
"United States of America",,-66.89284572199469,Position,"Mróz, United States of America",false,Location,50,US,,Mróz,477,,false,35.81160807986595
"United States of America",,-52.08053847577732,Position,"Kowalczyk, United States of America",false,Location,50,US,,Kowalczyk,478,,true,111.89374434063303
Spain,,5.64007850260775,Position,"Brzeziński, Spain",true,Location,50,ES,,Brzeziński,479,,true,88.36823080961273
Spain,,29.418142492994647,Position,"Stępień, Spain",true,Location,50,ES,,Stępień,480,,true,117.7134323547505
Spain,,-66.98244296110975,Position,"Górski, Spain",true,Location,50,ES,,Górski,481,,false,160.17508145001992
"United States of America",,-42.05779606003648,Position,"Szewczyk, United States of America",false,Location,50,US,,Szewczyk,482,,false,167.1839026600087
Spain,,0.4420220323712556,Position,"Kołodziej, Spain",true,Location,50,ES,,Kołodziej,483,,true,78.40679149103467
"United States of America",,-74.13535517359051,Position,"Baran, United States of America",false,Location,50,US,,Baran,484,,false,118.22233614021413
Poland,,-4.786569429139973,Position,"Przybylski, Poland",true,Location,50,PL,,Przybylski,485,,false,154.401857937228
Spain,,-45.83576886634824,Position,"Mazur, Spain",true,Location,50,ES,,Mazur,486,,false,67.91738581552781
Poland,,32.83705705676911,Position,"Pawlak, Poland",true,Location,50,PL,,Pawlak,487,,true,160.5972484922654
"United States of America",,86.23783641067288,Position,"Bąk, United States of America",false,Location,50,US,,Bąk,488,,false,96.20713152037082
Poland,,88.91832555824229,Position,"Pawlak, Poland",true,Location,50,PL,,Pawlak,489,,true,175.9899632991418
Poland,,-8.747137378725839,Position,"Kowalczyk, Poland",true,Location,50,PL,,Kowalczyk,490,,true,47.68231872983379
"United States of America",,-43.981149569973056,Position,"Stępień, United States of America",false,Location,50,US,,Stępień,491,,true,169.10960487045932
"United States of America",,-89.8209428638633,Position,"Krajewska, United States of America",false,Location,50,US,,Krajewska,492,,false,89.10872758030744
Poland,,14.898683636570738,Position,"Kowalczyk, Poland",true,Location,50,PL,,Kowalczyk,493,,false,92.33833451073622
Poland,,-35.34416292812374,Position,"Kołodziej, Poland",true,Location,50,PL,,Kołodziej,494,,false,142.50552041071685
Spain,,7.602126586562264,Position,"Wasilewska, Spain",true,Location,50,ES,,Wasilewska,495,,true,90.29846629256768
Poland,,-80.8510460330413,Position,"Marciniak, Poland",true,Location,50,PL,,Marciniak,496,,true,64.39106566516537
Poland,,52.657902482661655,Position,"Marciniak, Poland",true,Location,50,PL,,Marciniak,497,,false,46.94301517898731
Spain,,69.42956257898169,Position,"Baran, Spain",true,Location,50,ES,,Baran,498,,true,132.11312112273748
Spain,,-70.7408710333382,Position,"Stępień, Spain",true,Location,50,ES,,Stępień,499,,true,15.930749911607576
"United States of America",,7.2689309961928075,Position,"Kowalczyk, United States of America",false,Location,50,US,,Kowalczyk,500,,true,67.01739696620643
"United States of America",,-52.33533930175948,Position,"Kołodziej, United States of America",false,Location,50,US,,Kołodziej,501,,true,132.84485214910814
"United States of America",,62.38383843551773,Position,"Pawlak, United States of America",false,Location,50,US,,Pawlak,502,,true,82.57656227584972
Spain,,14.220437234331484,Position,"Błaszczyk, Spain",true,Location,50,ES,,Błaszczyk,503,,true,169.82312676940217
Poland,,21.09038607052628,Position,"Tomaszewski, Poland",true,Location,50,PL,,Tomaszewski,504,,false,107.50127353062996
Poland,,-58.6618903060378,Position,"Krawczyk, Poland",true,Location,50,PL,,Krawczyk,505,,false,76.20763926096781
Spain,,0.828153090550785,Position,"Bąk, Spain",true,Location,50,ES,,Bąk,506,,true,6.285264680163763
Poland,,-65.51224947158828,Position,"Pawlak, Poland",true,Location,50,PL,,Pawlak,507,,false,32.89308468513337
Spain,,24.70192261052121,Position,"Brzeziński, Spain",true,Location,50,ES,,Brzeziński,508,,false,48.598784118445096
Poland,,-10.237348963535865,Position,"Błaszczyk, Poland",true,Location,50,PL,,Błaszczyk,509,,true,59.15559824928408
Spain,,-72.54516644164627,Position,"Pawlak, Spain",true,Location,50,ES,,Pawlak,510,,false,96.43744568219843
Spain,,-67.14373345789966,Position,"Kołodziej, Spain",true,Location,50,ES,,Kołodziej,511,,false,161.87756399396946
"United States of America",,4.834663892961629,Position,"Przybylski, United States of America",false,Location,50,US,,Przybylski,512,,true,155.95831886984482
Spain,,59.35489163119061,Position,"Krajewska, Spain",true,Location,50,ES,,Krajewska,513,,false,55.24909824389714
"United States of America",,-1.8559420921923646,Position,"Kołodziej, United States of America",false,Location,50,US,,Kołodziej,514,,true,142.49047467050488
"United States of America",,-39.9055809412989,Position,"Stępień, United States of America",false,Location,50,US,,Stępień,515,,false,25.222981621688845
Poland,,82.87581122173592,Position,"Błaszczyk, Poland",true,Location,50,PL,,Błaszczyk,516,,true,127.29433352140718
"United States of America",,88.95548306663159,Position,"Górski, United States of America",false,Location,50,US,,Górski,517,,true,164.22754297181243
Spain,,60.72602093676585,Position,"Marciniak, Spain",true,Location,50,ES,,Marciniak,518,,true,36.26215441571067
Spain,,-15.121521676883305,Position,"Pawlak, Spain",true,Location,50,ES,,Pawlak,519,,true,66.90068081853339
"United States of America",,-7.049341787173745,Position,"Pawlak, United States of America",false,Location,50,US,,Pawlak,520,,false,70.90152255019323
Spain,,63.068484692142164,Position,"Krajewska, Spain",true,Location,50,ES,,Krajewska,521,,false,133.89829070633286
Spain,,90.985311858811,Position,"Szewczyk, Spain",true,Location,50,ES,,Szewczyk,522,,true,65.62435684096334
Spain,,43.32981598500194,Position,"Bąk, Spain",true,Location,50,ES,,Bąk,523,,false,145.1515964156654
"United States of America",,69.48313923774549,Position,"Bąk, United States of America",false,Location,50,US,,Bąk,524,,true,71.57577084243543
"United States of America",,-37.779101232882596,Position,"Mróz, United States of America",false,Location,50,US,,Mróz,525,,true,103.30055359618405
Spain,,41.44269835962177,Position,"Mróz, Spain",true,Location,50,ES,,Mróz,526,,false,99.98042631036965
"United States of America",,88.25239967807491,Position,"Sawicki, United States of America",false,Location,50,US,,Sawicki,527,,false,113.41408527138141
Spain,,59.89515257065,Position,"Brzeziński, Spain",true,Location,50,ES,,Brzeziński,528,,true,95.25832428265308
Spain,,-55.33496521509519,Position,"Kołodziej, Spain",true,Location,50,ES,,Kołodziej,529,,false,121.52316704250018
"United States of America",,56.69949587178243,Position,"Pawlak, United States of America",false,Location,50,US,,Pawlak,530,,true,74.9676967695486
Poland,,-75.58181723256232,Position,"Krawczyk, Poland",true,Location,50,PL,,Krawczyk,531,,false,29.938858762961242
Spain,,87.35473763202427,Position,"Przybylski, Spain",true,Location,50,ES,,Przybylski,532,,false,37.969558299774334
Poland,,72.89637962888585,Position,"Tomaszewski, Poland",true,Location,50,PL,,Tomaszewski,533,,true,23.80512316292518
"United States of America",,63.3796260720618,Position,"Szewczyk, United States of America",false,Location,50,US,,Szewczyk,534,,false,66.0766288761957
Spain,,-76.50189328387025,Position,"Tomaszewski, Spain",true,Location,50,ES,,Tomaszewski,535,,false,61.84485775834322
Poland,,-11.266673354160517,Position,"Tomaszewski, Poland",true,Location,50,PL,,Tomaszewski,536,,false,131.84878881176655
Spain,,29.70960234445218,Position,"Sawicki, Spain",true,Location,50,ES,,Sawicki,537,,false,24.79779811879451
Poland,,-40.04542553323917,Position,"Kowalczyk, Poland",true,Location,50,PL,,Kowalczyk,538,,false,96.12787164956931
Poland,,-0.513708750425323,Position,"Pawlak, Poland",true,Location,50,PL,,Pawlak,539,,false,13.620054122932393
"United States of America",,-4.817824274372001,Position,"Bąk, United States of America",false,Location,50,US,,Bąk,540,,true,156.3664816799179
Poland,,37.76535535020206,Position,"Sawicki, Poland",true,Location,50,PL,,Sawicki,541,,true,81.11777139031771
Spain,,47.986344326380674,Position,"Mazur, Spain",true,Location,50,ES,,Mazur,542,,true,47.79874533691026
Poland,,-18.284879670742882,Position,"Marciniak, Poland",true,Location,50,PL,,Marciniak,543,,false,84.3210043616264
Poland,,-24.01183261328046,Position,"Kowalczyk, Poland",true,Location,50,PL,,Kowalczyk,544,,false,111.0253064628271
"United States of America",,78.89056964839165,Position,"Krajewska, United States of America",false,Location,50,US,,Krajewska,545,,false,102.56911687918857
Spain,,-56.42635484513288,Position,"Przybylski, Spain",true,Location,50,ES,,Przybylski,546,,true,97.64046755692195
"United States of America",,42.80886249638064,Position,"Kołodziej, United States of America",false,Location,50,US,,Kołodziej,547,,true,158.9751219201499
"United States of America",,-58.38088487737216,Position,"Tomaszewski, United States of America",false,Location,50,US,,Tomaszewski,548,,false,164.11642699223174
Poland,,-15.41518449522384,Position,"Przybylski, Poland",true,Location,50,PL,,Przybylski,549,,true,59.66411651719143
"United States of America",,45.03636575525465,Position,"Marciniak, United States of America",false,Location,50,US,,Marciniak,550,,false,142.27758300733498
Spain,,65.1734863974147,Position,"Kowalczyk, Spain",true,Location,50,ES,,Kowalczyk,551,,false,52.939551733650895
Poland,,22.118752602947637,Position,"Przybylski, Poland",true,Location,50,PL,,Przybylski,552,,false,90.34741657286318
"United States of America",,-62.54452124847583,Position,"Przybylski, United States of America",false,Location,50,US,,Przybylski,553,,false,166.32128300300622
Poland,,85.12359030529333,Position,"Przybylski, Poland",true,Location,50,PL,,Przybylski,554,,false,171.73100914987427
Spain,,-48.12966432517169,Position,"Marciniak, Spain",true,Location,50,ES,,Marciniak,555,,false,96.22055286167088
"United States of America",,-7.738457823584099,Position,"Bąk, United States of America",false,Location,50,US,,Bąk,556,,false,84.40827259031892
Spain,,63.5543390174455,Position,"Stępień, Spain",true,Location,50,ES,,Stępień,557,,false,94.86957626658096
Poland,,20.280268189859925,Position,"Szewczyk, Poland",true,Location,50,PL,,Szewczyk,558,,true,151.05606241224126
Poland,,36.971287623931076,Position,"Kołodziej, Poland",true,Location,50,PL,,Kołodziej,559,,false,42.0072957228786
"United States of America",,89.12747309950183,Position,"Kowalczyk, United States of America",false,Location,50,US,,Kowalczyk,560,,true,176.79180639906787
Spain,,12.838247445567816,Position,"Mróz, Spain",true,Location,50,ES,,Mróz,561,,true,26.737755574033397
Poland,,47.75764361701178,Position,"Wasilewska, Poland",true,Location,50,PL,,Wasilewska,562,,true,7.736886760315001
"United States of America",,71.74309621010673,Position,"Krajewska, United States of America",false,Location,50,US,,Krajewska,563,,true,120.92398651145491
Spain,,26.006972037183445,Position,"Przybylski, Spain",true,Location,50,ES,,Przybylski,564,,true,48.434979021990856
Poland,,13.22653200751013,Position,"Kowalczyk, Poland",true,Location,50,PL,,Kowalczyk,565,,true,52.457745129674954
"United States of America",,25.602732425201282,Position,"Krawczyk, United States of America",false,Location,50,US,,Krawczyk,566,,false,5.528723350714526
Spain,,14.25854519591502,Position,"Baran, Spain",true,Location,50,ES,,Baran,567,,true,143.75421856574326
"United States of America",,29.796146152813435,Position,"Wasilewska, United States of America",false,Location,50,US,,Wasilewska,568,,true,180.99744369946612
"United States of America",,41.9778077463622,Position,"Błaszczyk, United States of America",false,Location,50,US,,Błaszczyk,569,,true,90.86095373956317
Spain,,63.81184557265783,Position,"Baran, Spain",true,Location,50,ES,,Baran,570,,false,20.689387826167817
"United States of America",,-77.71792443864081,Position,"Szewczyk, United States of America",false,Location,50,US,,Szewczyk,571,,true,21.64144843694668
Spain,,-8.707536197483677,Position,"Mróz, Spain",true,Location,50,ES,,Mróz,572,,false,75.84379974020223
"United States of America",,-42.641154319935914,Position,"Sawicki, United States of America",false,Location,50,US,,Sawicki,573,,true,8.596408861960427
"United States of America",,-62.81655463210029,Position,"Baran, United States of America",false,Location,50,US,,Baran,574,,true,82.79136294706237
"United States of America",,-85.47245871354754,Position,"Stępień, United States of America",false,Location,50,US,,Stępień,575,,false,50.019540930804354
Spain,,-77.94897292818003,Position,"Stępień, Spain",true,Location,50,ES,,Stępień,576,,true,180.04590097368887
Spain,,39.82814128600802,Position,"Szewczyk, Spain",true,Location,50,ES,,Szewczyk,577,,false,28.349646957659406
Poland,,83.65541619424306,Position,"Mazur, Poland",true,Location,50,PL,,Mazur,578,,false,62.555947292152844
Spain,,-56.36423557784436,Position,"Błaszczyk, Spain",true,Location,50,ES,,Błaszczyk,579,,true,71.7772336706005
"United States of America",,69.71163422026473,Position,"Bąk, United States of America",false,Location,50,US,,Bąk,580,,false,84.9716706628196
Spain,,-10.793156958367675,Position,"Stępień, Spain",true,Location,50,ES,,Stępień,581,,false,111.3912514823207
Spain,,-61.838068051470984,Position,"Wasilewska, Spain",true,Location,50,ES,,Wasilewska,582,,false,54.400823219482916
Spain,,74.46952598760339,Position,"Wasilewska, Spain",true,Location,50,ES,,Wasilewska,583,,true,119.41046680299311
Spain,,-6.043258230624801,Position,"Kołodziej, Spain",true,Location,50,ES,,Kołodziej,584,,false,88.27679719332379
"United States of America",,80.55972914115713,Position,"Kołodziej, United States of America",false,Location,50,US,,Kołodziej,585,,false,122.33394671990553
"United States of America",,76.29505454058432,Position,"Kołodziej, United States of America",false,Location,50,US,,Kołodziej,586,,true,150.64249695749228
Poland,,15.573648785585334,Position,"Szewczyk, Poland",true,Location,50,PL,,Szewczyk,587,,false,113.16647289733412
"United States of America",,-67.48947704881704,Position,"Bąk, United States of America",false,Location,50,US,,Bąk,588,,true,42.36574217023575
Spain,,81.75882678403266,Position,"Przybylski, Spain",true,Location,50,ES,,Przybylski,589,,false,95.22716711900597
Spain,,26.306273993293175,Position,"Kowalczyk, Spain",true,Location,50,ES,,Kowalczyk,590,,true,159.5449564861502
Spain,,-45.102146823483004,Position,"Tomaszewski, Spain",true,Location,50,ES,,Tomaszewski,591,,false,38.4335335518702
"United States of America",,48.839128207020025,Position,"Kołodziej, United States of America",false,Location,50,US,,Kołodziej,592,,false,136.63843119237276
"United States of America",,87.95240665756785,Position,"Pawlak, United States of America",false,Location,50,US,,Pawlak,593,,true,146.36797661727837
Poland,,-56.76691461830136,Position,"Kowalczyk, Poland",true,Location,50,PL,,Kowalczyk,594,,false,45.65601491219208
"United States of America",,90.13002167454133,Position,"Sawicki, United States of America",false,Location,50,US,,Sawicki,595,,false,79.8803152887123
"United States of America",,76.46237547053815,Position,"Baran, United States of America",false,Location,50,US,,Baran,596,,false,161.089084557597
Spain,,52.4119213867632,Position,"Krawczyk, Spain",true,Location,50,ES,,Krawczyk,597,,true,167.45727514699846
"United States of America",,85.18577674002341,Position,"Tomaszewski, United States of America",false,Location,50,US,,Tomaszewski,598,,true,106.12271871217813
Spain,,90.23751429789743,Position,"Sawicki, Spain",true,Location,50,ES,,Sawicki,599,,true,54.09867102263677
"United States of America",,-70.96304160654222,Position,"Przybylski, United States of America",false,Location,50,US,,Przybylski,600,,false,179.07354063861663
Spain,,87.47962461948072,Position,"Wasilewska, Spain",true,Location,50,ES,,Wasilewska,601,,true,20.98019512660075
Poland,,41.07959464844819,Position,"Przybylski, Poland",true,Location,50,PL,,Przybylski,602,,false,122.9272008913696
Spain,,-48.9357660807136,Position,"Marciniak, Spain",true,Location,50,ES,,Marciniak,603,,true,61.75382642838159
"United States of America",,80.62134765435343,Position,"Brzeziński, United States of America",false,Location,50,US,,Brzeziński,604,,true,152.31152513643593
Poland,,34.58950020495409,Position,"Baran, Poland",true,Location,50,PL,,Baran,605,,false,99.93956444624179
Poland,,66.34747106842312,Position,"Kołodziej, Poland",true,Location,50,PL,,Kołodziej,606,,true,34.234446088222086
Poland,,-47.918936679954534,Position,"Górski, Poland",true,Location,50,PL,,Górski,607,,false,162.49587659959798
Spain,,22.78259622749215,Position,"Tomaszewski, Spain",true,Location,50,ES,,Tomaszewski,608,,true,88.44023648242575
Poland,,-75.4158953731816,Position,"Pawlak, Poland",true,Location,50,PL,,Pawlak,609,,false,168.32138055745773
Spain,,50.41838508804929,Position,"Szewczyk, Spain",true,Location,50,ES,,Szewczyk,610,,true,7.293313958614976
Spain,,0.6373313886513898,Position,"Mróz, Spain",true,Location,50,ES,,Mróz,611,,false,179.13646512469285
"United States of America",,28.455092942188116,Position,"Mróz, United States of America",false,Location,50,US,,Mróz,612,,true,154.68566957935747
"United States of America",,-82.19991434438421,Position,"Sawicki, United States of America",false,Location,50,US,,Sawicki,613,,false,54.92119510039171
Poland,,10.996606528395162,Position,"Brzeziński, Poland",true,Location,50,PL,,Brzeziński,614,,false,12.582267641289445
Poland,,-37.68901723898628,Position,"Pawlak, Poland",true,Location,50,PL,,Pawlak,615,,true,58.8445669270576
Spain,,-86.28845061977961,Position,"Stępień, Spain",true,Location,50,ES,,Stępień,616,,false,65.46809265468934
Spain,,-12.35508030302249,Position,"Sawicki, Spain",true,Location,50,ES,,Sawicki,617,,true,26.410266022581563
Spain,,82.42691260350077,Position,"Bąk, Spain",true,Location,50,ES,,Bąk,618,,true,130.14119004960187
Poland,,87.2050962060826,Position,"Marciniak, Poland",true,Location,50,PL,,Marciniak,619,,true,178.36529149723575
Spain,,-63.143731512558205,Position,"Krajewska, Spain",true,Location,50,ES,,Krajewska,620,,false,174.00805221702026
"United States of America",,18.637607875002587,Position,"Brzeziński, United States of America",false,Location,50,US,,Brzeziński,621,,true,158.77047506730426
Poland,,1.6809827797270174,Position,"Mazur, Poland",true,Location,50,PL,,Mazur,622,,true,149.28069568296738
"United States of America",,-36.711588779874326,Position,"Bąk, United States of America",false,Location,50,US,,Bąk,623,,true,120.51558605931783
"United States of America",,-30.499078040742994,Position,"Kowalczyk, United States of America",false,Location,50,US,,Kowalczyk,624,,true,46.2493734826486
Poland,,-50.86403631977577,Position,"Szewczyk, Poland",true,Location,50,PL,,Szewczyk,625,,false,62.47682038603954
"United States of America",,-49.249924835801316,Position,"Pawlak, United States of America",false,Location,50,US,,Pawlak,626,,true,145.11038138807925
Spain,,84.12751487597464,Position,"Mróz, Spain",true,Location,50,ES,,Mróz,627,,false,105.46078092166265
"United States of America",,-2.4670464475923666,Position,"Marciniak, United States of America",false,Location,50,US,,Marciniak,628,,true,114.6654651839514
"United States of America",,-3.7769066794899544,Position,"Wasilewska, United States of America",false,Location,50,US,,Wasilewska,629,,true,0.056472713163867816
"United States of America",,-46.52078750656519,Position,"Krawczyk, United States of America",false,Location,50,US,,Krawczyk,630,,false,140.57734689563935
Poland,,27.608328162269316,Position,"Wasilewska, Poland",true,Location,50,PL,,Wasilewska,631,,false,74.52585250856774
"United States of America",,-12.863214513795938,Position,"Przybylski, United States of America",false,Location,50,US,,Przybylski,632,,true,108.76544872017064
"United States of America",,-40.524156797428496,Position,"Marciniak, United States of America",false,Location,50,US,,Marciniak,633,,false,135.90322238865292
Spain,,-42.8720607532924,Position,"Tomaszewski, Spain",true,Location,50,ES,,Tomaszewski,634,,true,84.95647306500246
"United States of America",,-42.50537657624988,Position,"Błaszczyk, United States of America",false,Location,50,US,,Błaszczyk,635,,true,157.5453180033315
Poland,,-88.72203198892176,Position,"Marciniak, Poland",true,Location,50,PL,,Marciniak,636,,false,131.3664246079864
Spain,,84.58774151189914,Position,"Marciniak, Spain",true,Location,50,ES,,Marciniak,637,,true,133.47629622701828
"United States of America",,59.19290897199048,Position,"Pawlak, United States of America",false,Location,50,US,,Pawlak,638,,true,157.98382777056793
Spain,,77.92109211622397,Position,"Krawczyk, Spain",true,Location,50,ES,,Krawczyk,639,,true,146.00568699586833
Poland,,53.31044526193179,Position,"Krajewska, Poland",true,Location,50,PL,,Krajewska,640,,false,158.94833820459536
Poland,,40.06917190781107,Position,"Bąk, Poland",true,Location,50,PL,,Bąk,641,,true,93.26242680901532
Poland,,23.277359303370716,Position,"Błaszczyk, Poland",true,Location,50,PL,,Błaszczyk,642,,false,6.074561946697933
"United States of America",,-43.831217856664836,Position,"Baran, United States of America",false,Location,50,US,,Baran,643,,true,164.48434226011082
"United States of America",,-60.38291578307055,Position,"Kowalczyk, United States of America",false,Location,50,US,,Kowalczyk,644,,false,124.65782104276329
"United States of America",,26.497426322834443,Position,"Krajewska, United States of America",false,Location,50,US,,Krajewska,645,,true,69.13002508161436
Spain,,-11.9572648936567,Position,"Mróz, Spain",true,Location,50,ES,,Mróz,646,,true,87.31680192905974
Spain,,36.320422640211234,Position,"Baran, Spain",true,Location,50,ES,,Baran,647,,false,72.13878449424682
Spain,,90.44361695377529,Position,"Błaszczyk, Spain",true,Location,50,ES,,Błaszczyk,648,,false,72.77742255114215
Poland,,-61.9607505325156,Position,"Bąk, Poland",true,Location,50,PL,,Bąk,649,,false,151.95446425839515
Spain,,-25.472494907135328,Position,"Górski, Spain",true,Location,50,ES,,Górski,650,,false,21.182856106853496
Poland,,-71.35664297340612,Position,"Sawicki, Poland",true,Location,50,PL,,Sawicki,651,,false,58.25013877157146
"United States of America",,-36.66383135333121,Position,"Stępień, United States of America",false,Location,50,US,,Stępień,652,,false,99.72667727562991
Spain,,-37.7814011027003,Position,"Szewczyk, Spain",true,Location,50,ES,,Szewczyk,653,,false,77.64329488909014
Poland,,5.368412114257183,Position,"Górski, Poland",true,Location,50,PL,,Górski,654,,false,106.1491732475133
Spain,,50.79777615813137,Position,"Tomaszewski, Spain",true,Location,50,ES,,Tomaszewski,655,,true,54.0748292153451
Poland,,-11.157485246797549,Position,"Sawicki, Poland",true,Location,50,PL,,Sawicki,656,,true,22.911313142101164
"United States of America",,76.15218604377174,Position,"Brzeziński, United States of America",false,Location,50,US,,Brzeziński,657,,true,76.94033570834733
Poland,,-20.29070717296608,Position,"Kołodziej, Poland",true,Location,50,PL,,Kołodziej,658,,false,86.66647974130515
Spain,,29.21778494928523,Position,"Kowalczyk, Spain",true,Location,50,ES,,Kowalczyk,659,,false,153.50830750844221
Spain,,77.38721421185147,Position,"Brzeziński, Spain",true,Location,50,ES,,Brzeziński,660,,true,30.98712813814768
Poland,,-75.27442264321506,Position,"Kowalczyk, Poland",true,Location,50,PL,,Kowalczyk,661,,false,23.637553182738838
Poland,,-59.1674130816684,Position,"Kołodziej, Poland",true,Location,50,PL,,Kołodziej,662,,false,156.17145356265948
Poland,,-15.736874893628809,Position,"Wasilewska, Poland",true,Location,50,PL,,Wasilewska,663,,true,117.31479434482968
Poland,,53.4808254814065,Position,"Marciniak, Poland",true,Location,50,PL,,Marciniak,664,,true,175.35486387959295
Spain,,68.43238724632786,Position,"Pawlak, Spain",true,Location,50,ES,,Pawlak,665,,false,137.07359480133624
"United States of America",,-29.201256940559,Position,"Mróz, United States of America",false,Location,50,US,,Mróz,666,,false,178.08140130375958
Spain,,7.989056327420002,Position,"Przybylski, Spain",true,Location,50,ES,,Przybylski,667,,false,62.926866840011584
Spain,,-83.32671923042015,Position,"Brzeziński, Spain",true,Location,50,ES,,Brzeziński,668,,true,46.952491509347794
Poland,,22.849289377444364,Position,"Marciniak, Poland",true,Location,50,PL,,Marciniak,669,,true,24.047947016747504
"United States of America",,77.62863772845725,Position,"Krawczyk, United States of America",false,Location,50,US,,Krawczyk,670,,true,29.963273151786552
Spain,,66.6321552252893,Position,"Marciniak, Spain",true,Location,50,ES,,Marciniak,671,,true,143.06887123580526
Poland,,45.91163472202243,Position,"Błaszczyk, Poland",true,Location,50,PL,,Błaszczyk,672,,false,27.66136380999417
Spain,,-40.03050466952297,Position,"Górski, Spain",true,Location,50,ES,,Górski,673,,true,130.52956804783065
Spain,,-57.185795369345996,Position,"Marciniak, Spain",true,Location,50,ES,,Marciniak,674,,false,39.31851587921988
"United States of America",,71.15963007812312,Position,"Brzeziński, United States of America",false,Location,50,US,,Brzeziński,675,,true,138.70801953913227
Poland,,61.21234518084151,Position,"Marciniak, Poland",true,Location,50,PL,,Marciniak,676,,false,120.89255323025306
Spain,,-45.13264968706756,Position,"Przybylski, Spain",true,Location,50,ES,,Przybylski,677,,false,125.78890576599954
Spain,,71.19236793216726,Position,"Pawlak, Spain",true,Location,50,ES,,Pawlak,678,,false,162.67505421627618
Spain,,85.47984997861138,Position,"Krawczyk, Spain",true,Location,50,ES,,Krawczyk,679,,true,118.08707795676949
"United States of America",,-11.191804251994853,Position,"Marciniak, United States of America",false,Location,50,US,,Marciniak,680,,true,13.169871511931438
Poland,,-62.58330641353511,Position,"Sawicki, Poland",true,Location,50,PL,,Sawicki,681,,true,8.832254715079435
Poland,,-42.532478462089195,Position,"Błaszczyk, Poland",true,Location,50,PL,,Błaszczyk,682,,false,43.92791820610125
Poland,,-36.83829328552789,Position,"Szewczyk, Poland",true,Location,50,PL,,Szewczyk,683,,true,100.84258802760412
Spain,,0.1800622650410446,Position,"Bąk, Spain",true,Location,50,ES,,Bąk,684,,false,81.77594321115227
"United States of America",,-65.96437344746705,Position,"Pawlak, United States of America",false,Location,50,US,,Pawlak,685,,true,179.26731528719912
Spain,,-30.08238338745838,Position,"Bąk, Spain",true,Location,50,ES,,Bąk,686,,false,142.11983792856503
"United States of America",,-79.23950148827663,Position,"Sawicki, United States of America",false,Location,50,US,,Sawicki,687,,true,150.46249460046093
"United States of America",,-72.36634143303787,Position,"Marciniak, United States of America",false,Location,50,US,,Marciniak,688,,true,31.777695293509097
Poland,,48.68042921052671,Position,"Kołodziej, Poland",true,Location,50,PL,,Kołodziej,689,,false,17.978856511028948
Poland,,-58.93090177315722,Position,"Bąk, Poland",true,Location,50,PL,,Bąk,690,,true,1.1032840851770929
Poland,,-18.90205276960795,Position,"Tomaszewski, Poland",true,Location,50,PL,,Tomaszewski,691,,false,10.587093239388542
"United States of America",,-14.668580880490609,Position,"Marciniak, United States of America",false,Location,50,US,,Marciniak,692,,false,35.997744329911434
Poland,,39.56113981918642,Position,"Mazur, Poland",true,Location,50,PL,,Mazur,693,,false,179.24343043382223
Spain,,-10.624223746221631,Position,"Przybylski, Spain",true,Location,50,ES,,Przybylski,694,,true,95.77527178530707
"United States of America",,66.09409343498498,Position,"Tomaszewski, United States of America",false,Location,50,US,,Tomaszewski,695,,true,160.90719682701956
Poland,,6.939679520190154,Position,"Baran, Poland",true,Location,50,PL,,Baran,696,,true,65.74805021553749
"United States of America",,22.30157488609794,Position,"Bąk, United States of America",false,Location,50,US,,Bąk,697,,true,85.16198965703079
"United States of America",,-89.81315152884869,Position,"Kowalczyk, United States of America",false,Location,50,US,,Kowalczyk,698,,false,159.82644243721498
"United States of America",,29.998582484848527,Position,"Bąk, United States of America",false,Location,50,US,,Bąk,699,,true,59.66347575309957
"United States of America",,-13.698696967682864,Position,"Mróz, United States of America",false,Location,50,US,,Mróz,700,,false,23.392203311478404
Spain,,74.51641085193762,Position,"Wasilewska, Spain",true,Location,50,ES,,Wasilewska,701,,true,77.53937084105884
Poland,,35.539192011885774,Position,"Mazur, Poland",true,Location,50,PL,,Mazur,702,,false,158.19573434130024
Poland,,55.11915754016121,Position,"Błaszczyk, Poland",true,Location,50,PL,,Błaszczyk,703,,true,64.00079998537944
Spain,,46.793931663742654,Position,"Błaszczyk, Spain",true,Location,50,ES,,Błaszczyk,704,,true,75.05285552977462
"United States of America",,1.0279360248660794,Position,"Krajewska, United States of America",false,Location,50,US,,Krajewska,705,,true,170.58951596725106
"United States of America",,-8.440916869003587,Position,"Wasilewska, United States of America",false,Location,50,US,,Wasilewska,706,,false,157.6720989012058
"United States of America",,67.39491173678357,Position,"Szewczyk, United States of America",false,Location,50,US,,Szewczyk,707,,false,170.68152797008102
Poland,,1.283978942726165,Position,"Brzeziński, Poland",true,Location,50,PL,,Brzeziński,708,,false,84.03059078800872
"United States of America",,21.195211456035963,Position,"Tomaszewski, United States of America",false,Location,50,US,,Tomaszewski,709,,true,63.09532269926028
Poland,,-27.491480581865247,Position,"Przybylski, Poland",true,Location,50,PL,,Przybylski,710,,true,100.33465800915658
Spain,,-48.588036961015455,Position,"Brzeziński, Spain",true,Location,50,ES,,Brzeziński,711,,true,167.91168798342298
Poland,,-23.16344496037479,Position,"Mróz, Poland",true,Location,50,PL,,Mróz,712,,false,167.75070624605823
Spain,,-72.9217817051536,Position,"Marciniak, Spain",true,Location,50,ES,,Marciniak,713,,true,45.90208328797158
Spain,,-35.23871850066164,Position,"Bąk, Spain",true,Location,50,ES,,Bąk,714,,true,167.77270153329988
Spain,,36.709261804214066,Position,"Kowalczyk, Spain",true,Location,50,ES,,Kowalczyk,715,,false,42.283893042675075
Spain,,3.5914697065049097,Position,"Bąk, Spain",true,Location,50,ES,,Bąk,716,,false,102.30428201303258
Poland,,-82.59029261052743,Position,"Kowalczyk, Poland",true,Location,50,PL,,Kowalczyk,717,,false,132.87336964825013
"United States of America",,1.243923190979359,Position,"Stępień, United States of America",false,Location,50,US,,Stępień,718,,false,116.27695148019401
Spain,,-75.52786072181759,Position,"Błaszczyk, Spain",true,Location,50,ES,,Błaszczyk,719,,false,73.09090398146076
"United States of America",,-48.534535424741314,Position,"Kołodziej, United States of America",false,Location,50,US,,Kołodziej,720,,true,49.899977023120826
Poland,,22.597373173620994,Position,"Krawczyk, Poland",true,Location,50,PL,,Krawczyk,721,,false,37.68827685226207
"United States of America",,47.12677995010961,Position,"Bąk, United States of America",false,Location,50,US,,Bąk,722,,false,171.4434715318866
"United States of America",,-77.03872126524065,Position,"Stępień, United States of America",false,Location,50,US,,Stępień,723,,true,91.51381260761966
Spain,,-23.40916218244878,Position,"Mazur, Spain",true,Location,50,ES,,Mazur,724,,true,61.7929139342684
Spain,,-31.77098498860932,Position,"Błaszczyk, Spain",true,Location,50,ES,,Błaszczyk,725,,false,130.10898111215712
Poland,,-27.199762822152202,Position,"Mazur, Poland",true,Location,50,PL,,Mazur,726,,true,142.88163639373266
"United States of America",,-6.725264989830521,Position,"Wasilewska, United States of America",false,Location,50,US,,Wasilewska,727,,true,142.438663800939
Spain,,55.650605964400995,Position,"Górski, Spain",true,Location,50,ES,,Górski,728,,true,17.50710018829493
Poland,,-78.19664475938143,Position,"Wasilewska, Poland",true,Location,50,PL,,Wasilewska,729,,true,111.59743684078154
Spain,,-65.57864773432937,Position,"Tomaszewski, Spain",true,Location,50,ES,,Tomaszewski,730,,false,161.96759224604264
Poland,,21.290693585882536,Position,"Tomaszewski, Poland",true,Location,50,PL,,Tomaszewski,731,,false,125.90547363495921
Spain,,-53.479619277180504,Position,"Brzeziński, Spain",true,Location,50,ES,,Brzeziński,732,,false,77.41775482914693
Poland,,78.65915955537355,Position,"Szewczyk, Poland",true,Location,50,PL,,Szewczyk,733,,false,159.41018369731566
Spain,,79.56600316494416,Position,"Stępień, Spain",true,Location,50,ES,,Stępień,734,,true,155.8345890218334
"United States of America",,27.888623289332173,Position,"Marciniak, United States of America",false,Location,50,US,,Marciniak,735,,false,22.443558127574086
"United States of America",,53.877093450328346,Position,"Szewczyk, United States of America",false,Location,50,US,,Szewczyk,736,,false,142.00999496067269
Poland,,-15.674699351679564,Position,"Pawlak, Poland",true,Location,50,PL,,Pawlak,737,,true,102.5501515885946
Poland,,-11.228273854132894,Position,"Wasilewska, Poland",true,Location,50,PL,,Wasilewska,738,,false,103.04156321012358
Poland,,60.796439596331794,Position,"Mróz, Poland",true,Location,50,PL,,Mróz,739,,true,179.79702316877894
"United States of America",,-77.31526701222397,Position,"Krajewska, United States of America",false,Location,50,US,,Krajewska,740,,false,114.38021233251598
Poland,,-16.2355447440639,Position,"Górski, Poland",true,Location,50,PL,,Górski,741,,false,21.204352271145172
Spain,,-61.99359121661361,Position,"Błaszczyk, Spain",true,Location,50,ES,,Błaszczyk,742,,true,84.61147462555944
"United States of America",,-81.33862019625084,Position,"Górski, United States of America",false,Location,50,US,,Górski,743,,true,97.79440170370655
"United States of America",,-3.2827367748474217,Position,"Błaszczyk, United States of America",false,Location,50,US,,Błaszczyk,744,,false,92.7966492262742
"United States of America",,-6.766928518365916,Position,"Bąk, United States of America",false,Location,50,US,,Bąk,745,,false,95.54639002701566
"United States of America",,-41.65203287762046,Position,"Wasilewska, United States of America",false,Location,50,US,,Wasilewska,746,,false,94.38067470218124
Poland,,-10.807778109585811,Position,"Marciniak, Poland",true,Location,50,PL,,Marciniak,747,,true,166.36625230831726
Spain,,16.52886587249722,Position,"Szewczyk, Spain",true,Location,50,ES,,Szewczyk,748,,true,27.385481205080964
"United States of America",,66.73026282590243,Position,"Bąk, United States of America",false,Location,50,US,,Bąk,749,,false,109.03267870987715
Spain,,-45.58983098600075,Position,"Brzeziński, Spain",true,Location,50,ES,,Brzeziński,750,,true,160.850821889112
Poland,,3.4705092267245448,Position,"Stępień, Poland",true,Location,50,PL,,Stępień,751,,false,177.96472816131927
Spain,,-34.468358903279515,Position,"Brzeziński, Spain",true,Location,50,ES,,Brzeziński,752,,true,49.258871396441364
Poland,,34.258267147066164,Position,"Przybylski, Poland",true,Location,50,PL,,Przybylski,753,,false,142.57128549747617
Poland,,25.299801351784225,Position,"Tomaszewski, Poland",true,Location,50,PL,,Tomaszewski,754,,false,110.98468239095713
"United States of America",,-25.221547940979548,Position,"Tomaszewski, United States of America",false,Location,50,US,,Tomaszewski,755,,false,64.88891841268963
Spain,,-74.90900084748338,Position,"Mazur, Spain",true,Location,50,ES,,Mazur,756,,true,10.651386133339754
Poland,,59.367184969648235,Position,"Przybylski, Poland",true,Location,50,PL,,Przybylski,757,,true,59.19228999547306
"United States of America",,-3.8597309710987844,Position,"Sawicki, United States of America",false,Location,50,US,,Sawicki,758,,false,161.6372576601676
"United States of America",,33.54111533554513,Position,"Brzeziński, United States of America",false,Location,50,US,,Brzeziński,759,,true,31.26995611826652
Spain,,-49.201209290783126,Position,"Mazur, Spain",true,Location,50,ES,,Mazur,760,,false,77.88117593846953
Poland,,26.706580073181442,Position,"Kowalczyk, Poland",true,Location,50,PL,,Kowalczyk,761,,false,130.09859116574177
Poland,,-71.55316721499146,Position,"Kowalczyk, Poland",true,Location,50,PL,,Kowalczyk,762,,true,130.56362138647285
"United States of America",,78.230619090821,Position,"Krajewska, United States of America",false,Location,50,US,,Krajewska,763,,true,9.719741940210783
"United States of America",,41.33442383586569,Position,"Bąk, United States of America",false,Location,50,US,,Bąk,764,,false,101.20233460204139
Poland,,59.55664733855963,Position,"Mróz, Poland",true,Location,50,PL,,Mróz,765,,false,130.22603049583867
"United States of America",,-16.11136555091501,Position,"Pawlak, United States of America",false,Location,50,US,,Pawlak,766,,true,172.19489525364006
"United States of America",,26.32995690959264,Position,"Szewczyk, United States of America",false,Location,50,US,,Szewczyk,767,,true,46.89720900649802
Spain,,-45.425907785989615,Position,"Kołodziej, Spain",true,Location,50,ES,,Kołodziej,768,,true,55.86483898946425
Spain,,-12.438397741799747,Position,"Górski, Spain",true,Location,50,ES,,Górski,769,,false,68.69178950526305
Spain,,52.22264797040435,Position,"Kowalczyk, Spain",true,Location,50,ES,,Kowalczyk,770,,false,15.623750254331659
Spain,,46.70406563686569,Position,"Kowalczyk, Spain",true,Location,50,ES,,Kowalczyk,771,,true,9.496046905548958
Poland,,-62.14177096646729,Position,"Wasilewska, Poland",true,Location,50,PL,,Wasilewska,772,,true,92.94846749524936
Poland,,-25.862104054524664,Position,"Kowalczyk, Poland",true,Location,50,PL,,Kowalczyk,773,,false,153.75989629133966
Spain,,-38.56528311900415,Position,"Wasilewska, Spain",true,Location,50,ES,,Wasilewska,774,,true,62.49086957609281
"United States of America",,18.975920424578433,Position,"Brzeziński, United States of America",false,Location,50,US,,Brzeziński,775,,false,124.40777110106148
Spain,,45.57742576819501,Position,"Brzeziński, Spain",true,Location,50,ES,,Brzeziński,776,,true,50.787117310648014
"United States of America",,33.28001388842432,Position,"Krawczyk, United States of America",false,Location,50,US,,Krawczyk,777,,false,171.20284101555376
"United States of America",,47.372866478308794,Position,"Błaszczyk, United States of America",false,Location,50,US,,Błaszczyk,778,,false,145.71371534692275
"United States of America",,44.755141288930986,Position,"Tomaszewski, United States of America",false,Location,50,US,,Tomaszewski,779,,true,111.06405439459716
Spain,,-74.51308994209641,Position,"Bąk, Spain",true,Location,50,ES,,Bąk,780,,false,133.0499305583693
Spain,,11.736388112675968,Position,"Błaszczyk, Spain",true,Location,50,ES,,Błaszczyk,781,,true,129.18810941062213
Poland,,-85.59202549621867,Position,"Baran, Poland",true,Location,50,PL,,Baran,782,,true,121.2490716644496
"United States of America",,79.81691089145531,Position,"Baran, United States of America",false,Location,50,US,,Baran,783,,true,139.2122269493119
"United States of America",,-85.59025497327853,Position,"Marciniak, United States of America",false,Location,50,US,,Marciniak,784,,false,160.7956076566802
Spain,,28.778195832699296,Position,"Pawlak, Spain",true,Location,50,ES,,Pawlak,785,,false,86.06861667791458
Poland,,-39.09293722343771,Position,"Kołodziej, Poland",true,Location,50,PL,,Kołodziej,786,,true,175.33078036769209
Spain,,59.578790859482666,Position,"Marciniak, Spain",true,Location,50,ES,,Marciniak,787,,false,12.627849365387947
Spain,,-14.761065383175634,Position,"Tomaszewski, Spain",true,Location,50,ES,,Tomaszewski,788,,true,100.06633549745092
"United States of America",,-36.96638933270267,Position,"Kołodziej, United States of America",false,Location,50,US,,Kołodziej,789,,false,18.705887266496905
Spain,,-28.445750944232742,Position,"Górski, Spain",true,Location,50,ES,,Górski,790,,false,41.873970708931196
Spain,,-55.526891753641756,Position,"Przybylski, Spain",true,Location,50,ES,,Przybylski,791,,false,83.51825048645047
"United States of America",,10.398568947775232,Position,"Kołodziej, United States of America",false,Location,50,US,,Kołodziej,792,,true,86.83776139409622
Poland,,60.110224207705755,Position,"Kołodziej, Poland",true,Location,50,PL,,Kołodziej,793,,false,91.20495346352355
Poland,,-16.19539054647757,Position,"Szewczyk, Poland",true,Location,50,PL,,Szewczyk,794,,false,170.98731401185847
Poland,,62.06254934359791,Position,"Błaszczyk, Poland",true,Location,50,PL,,Błaszczyk,795,,true,26.620987021174813
"United States of America",,-34.825834038346045,Position,"Brzeziński, United States of America",false,Location,50,US,,Brzeziński,796,,true,26.391350030784622
Poland,,73.97827548762956,Position,"Mróz, Poland",true,Location,50,PL,,Mróz,797,,false,100.18981424158666
Poland,,-6.993935157292654,Position,"Krawczyk, Poland",true,Location,50,PL,,Krawczyk,798,,true,151.7846489758414
Poland,,-4.00332844656559,Position,"Marciniak, Poland",true,Location,50,PL,,Marciniak,799,,true,154.25103709461743
"United States of America",,6.572382471515709,Position,"Bąk, United States of America",false,Location,50,US,,Bąk,800,,true,156.42559347696366
Poland,,11.337302304837735,Position,"Mróz, Poland",true,Location,50,PL,,Mróz,801,,true,175.99840167020233
Poland,,-7.025570348422519,Position,"Mazur, Poland",true,Location,50,PL,,Mazur,802,,true,54.9373482344169
Poland,,-71.84308475681065,Position,"Sawicki, Poland",true,Location,50,PL,,Sawicki,803,,true,43.80075898400601
Poland,,46.620222554057165,Position,"Baran, Poland",true,Location,50,PL,,Baran,804,,true,26.472458698001375
"United States of America",,-17.561044217608483,Position,"Tomaszewski, United States of America",false,Location,50,US,,Tomaszewski,805,,true,158.42593274802826
Spain,,84.05683763080975,Position,"Marciniak, Spain",true,Location,50,ES,,Marciniak,806,,true,88.65896197412165
Poland,,59.587833032693595,Position,"Kowalczyk, Poland",true,Location,50,PL,,Kowalczyk,807,,true,154.44639613675534
Poland,,-67.73606876192957,Position,"Pawlak, Poland",true,Location,50,PL,,Pawlak,808,,false,88.43547654679296
"United States of America",,-34.911436200531064,Position,"Błaszczyk, United States of America",false,Location,50,US,,Błaszczyk,809,,true,178.89559800865933
Spain,,63.968643877053836,Position,"Szewczyk, Spain",true,Location,50,ES,,Szewczyk,810,,false,161.06334334949327
"United States of America",,-64.93783706148955,Position,"Górski, United States of America",false,Location,50,US,,Górski,811,,true,28.065128708676912
Poland,,-58.722283736330525,Position,"Brzeziński, Poland",true,Location,50,PL,,Brzeziński,812,,false,2.3158715012384605
Poland,,-28.201892187778704,Position,"Krawczyk, Poland",true,Location,50,PL,,Krawczyk,813,,false,139.18542834560725
Spain,,-47.06102410667481,Position,"Mazur, Spain",true,Location,50,ES,,Mazur,814,,false,82.08788455065317
Spain,,84.37739944409518,Position,"Tomaszewski, Spain",true,Location,50,ES,,Tomaszewski,815,,true,108.61651879934846
Poland,,81.84243327022094,Position,"Marciniak, Poland",true,Location,50,PL,,Marciniak,816,,true,114.44316175498716
Spain,,69.3133160189168,Position,"Wasilewska, Spain",true,Location,50,ES,,Wasilewska,817,,false,166.09031163763765
"United States of America",,53.950131414843696,Position,"Krajewska, United States of America",false,Location,50,US,,Krajewska,818,,true,97.42308309341053
Spain,,-68.26845578959635,Position,"Kołodziej, Spain",true,Location,50,ES,,Kołodziej,819,,false,141.49230242318325
Spain,,-13.295562127057309,Position,"Kowalczyk, Spain",true,Location,50,ES,,Kowalczyk,820,,true,121.77660600091838
"United States of America",,-74.01252059806147,Position,"Krajewska, United States of America",false,Location,50,US,,Krajewska,821,,true,3.6480154541764875
"United States of America",,-81.89410805808772,Position,"Kowalczyk, United States of America",false,Location,50,US,,Kowalczyk,822,,true,44.1399768351073
"United States of America",,87.77565138798624,Position,"Kołodziej, United States of America",false,Location,50,US,,Kołodziej,823,,false,10.588379438830511
Spain,,-28.925301819105506,Position,"Pawlak, Spain",true,Location,50,ES,,Pawlak,824,,false,22.093922469088653
"United States of America",,-39.275334718765066,Position,"Błaszczyk, United States of America",false,Location,50,US,,Błaszczyk,825,,true,55.808148313861665
Spain,,-25.58600039502248,Position,"Kołodziej, Spain",true,Location,50,ES,,Kołodziej,826,,true,168.95674954800447
"United States of America",,-10.809111646822771,Position,"Stępień, United States of America",false,Location,50,US,,Stępień,827,,false,47.1029693095529
"United States of America",,67.67840493020128,Position,"Wasilewska, United States of America",false,Location,50,US,,Wasilewska,828,,true,169.1336929696025
"United States of America",,58.46498480832818,Position,"Wasilewska, United States of America",false,Location,50,US,,Wasilewska,829,,true,140.67296567249005
Poland,,35.51791080578451,Position,"Błaszczyk, Poland",true,Location,50,PL,,Błaszczyk,830,,true,179.33602532510258
Spain,,-4.112325764232352,Position,"Baran, Spain",true,Location,50,ES,,Baran,831,,false,61.3147933570977
Poland,,51.615139071356055,Position,"Tomaszewski, Poland",true,Location,50,PL,,Tomaszewski,832,,false,12.00784109114957
Poland,,7.434566110042212,Position,"Brzeziński, Poland",true,Location,50,PL,,Brzeziński,833,,false,26.68890051978693
"United States of America",,-22.837045761634442,Position,"Kołodziej, United States of America",false,Location,50,US,,Kołodziej,834,,false,20.854128027650738
"United States of America",,87.17464268331815,Position,"Baran, United States of America",false,Location,50,US,,Baran,835,,true,13.84520148517014
Poland,,73.93984612143905,Position,"Krawczyk, Poland",true,Location,50,PL,,Krawczyk,836,,true,30.450579774449057
Spain,,66.63291243649238,Position,"Bąk, Spain",true,Location,50,ES,,Bąk,837,,false,74.41777735489742
"United States of America",,-29.567878639043307,Position,"Wasilewska, United States of America",false,Location,50,US,,Wasilewska,838,,true,127.53384697467295
Spain,,13.495051914478978,Position,"Mróz, Spain",true,Location,50,ES,,Mróz,839,,false,39.15815662867301
"United States of America",,-60.87529456024323,Position,"Górski, United States of America",false,Location,50,US,,Górski,840,,false,19.72028888476378
Spain,,-63.71974478270944,Position,"Brzeziński, Spain",true,Location,50,ES,,Brzeziński,841,,false,171.7665557061487
Spain,,44.03657511737441,Position,"Marciniak, Spain",true,Location,50,ES,,Marciniak,842,,false,23.081991826541795
Poland,,13.578268485070879,Position,"Brzeziński, Poland",true,Location,50,PL,,Brzeziński,843,,false,113.30199085915632
Poland,,-6.187916947241419,Position,"Baran, Poland",true,Location,50,PL,,Baran,844,,true,137.22065731774603
Poland,,60.19759891172396,Position,"Tomaszewski, Poland",true,Location,50,PL,,Tomaszewski,845,,true,82.80453364532612
"United States of America",,66.1960874477306,Position,"Marciniak, United States of America",false,Location,50,US,,Marciniak,846,,true,169.22323875483087
Poland,,-14.895975313066288,Position,"Marciniak, Poland",true,Location,50,PL,,Marciniak,847,,true,65.14680999165365
Spain,,-57.48128582539677,Position,"Tomaszewski, Spain",true,Location,50,ES,,Tomaszewski,848,,true,127.15754082289189
Spain,,3.3421120591794704,Position,"Krawczyk, Spain",true,Location,50,ES,,Krawczyk,849,,false,31.546961300754244
Poland,,13.894511615343717,Position,"Tomaszewski, Poland",true,Location,50,PL,,Tomaszewski,850,,false,56.57162502100543
Spain,,-70.77291185970705,Position,"Brzeziński, Spain",true,Location,50,ES,,Brzeziński,851,,true,132.62147545745492
"United States of America",,-84.79870269354223,Position,"Mróz, United States of America",false,Location,50,US,,Mróz,852,,true,148.79794964361622
"United States of America",,-85.02952624050943,Position,"Pawlak, United States of America",false,Location,50,US,,Pawlak,853,,true,25.333877495132576
"United States of America",,80.5454931469495,Position,"Pawlak, United States of America",false,Location,50,US,,Pawlak,854,,false,58.731090217441285
Poland,,9.559993603111991,Position,"Górski, Poland",true,Location,50,PL,,Górski,855,,true,138.7040766989795
Poland,,11.843590770142498,Position,"Marciniak, Poland",true,Location,50,PL,,Marciniak,856,,false,163.14752950214452
Poland,,-88.84708774866016,Position,"Przybylski, Poland",true,Location,50,PL,,Przybylski,857,,true,87.68316131762496
"United States of America",,37.35355373272564,Position,"Krajewska, United States of America",false,Location,50,US,,Krajewska,858,,false,135.56651704074247
"United States of America",,59.46151196916804,Position,"Wasilewska, United States of America",false,Location,50,US,,Wasilewska,859,,false,113.16977565187129
Spain,,24.47525424418309,Position,"Stępień, Spain",true,Location,50,ES,,Stępień,860,,false,127.11298104500061
"United States of America",,38.61051919584679,Position,"Baran, United States of America",false,Location,50,US,,Baran,861,,true,176.7466751382418
Poland,,23.90568580403439,Position,"Przybylski, Poland",true,Location,50,PL,,Przybylski,862,,false,100.83663343986014
"United States of America",,45.728478158662995,Position,"Marciniak, United States of America",false,Location,50,US,,Marciniak,863,,true,163.34995410169628
Spain,,-3.7174859791118138,Position,"Baran, Spain",true,Location,50,ES,,Baran,864,,true,31.465798808502644
Spain,,88.09851295138483,Position,"Mróz, Spain",true,Location,50,ES,,Mróz,865,,true,58.748368155500735
Poland,,-79.2213471796231,Position,"Bąk, Poland",true,Location,50,PL,,Bąk,866,,false,60.63019259799636
"United States of America",,-34.96131341301623,Position,"Kowalczyk, United States of America",false,Location,50,US,,Kowalczyk,867,,false,157.40653873758805
"United States of America",,-30.2791256758128,Position,"Mazur, United States of America",false,Location,50,US,,Mazur,868,,true,131.17376538016103
Poland,,18.808149073940243,Position,"Marciniak, Poland",true,Location,50,PL,,Marciniak,869,,true,175.03332621836728
Spain,,-67.80287645642291,Position,"Pawlak, Spain",true,Location,50,ES,,Pawlak,870,,false,36.296877549765235
"United States of America",,47.74244759576683,Position,"Błaszczyk, United States of America",false,Location,50,US,,Błaszczyk,871,,false,9.87546570698921
Spain,,35.78996824095225,Position,"Pawlak, Spain",true,Location,50,ES,,Pawlak,872,,true,132.9165696783944
Spain,,-9.49011475014295,Position,"Kowalczyk, Spain",true,Location,50,ES,,Kowalczyk,873,,true,61.60659251114312
"United States of America",,-15.972195686077612,Position,"Mróz, United States of America",false,Location,50,US,,Mróz,874,,false,2.814232265412957
Poland,,16.850536457318,Position,"Górski, Poland",true,Location,50,PL,,Górski,875,,true,137.48310150596555
"United States of America",,31.880753074323067,Position,"Kołodziej, United States of America",false,Location,50,US,,Kołodziej,876,,true,131.85198367790238
Spain,,-49.58952403015582,Position,"Pawlak, Spain",true,Location,50,ES,,Pawlak,877,,true,156.2907219168668
"United States of America",,-68.35526328562383,Position,"Przybylski, United States of America",false,Location,50,US,,Przybylski,878,,false,170.78218602497182
Spain,,-3.6839134686654376,Position,"Tomaszewski, Spain",true,Location,50,ES,,Tomaszewski,879,,true,69.4896507855501
Spain,,90.85519626540747,Position,"Pawlak, Spain",true,Location,50,ES,,Pawlak,880,,false,161.94899212565832
Poland,,33.94664056207678,Position,"Marciniak, Poland",true,Location,50,PL,,Marciniak,881,,true,22.88094624154342
Spain,,83.45088013527155,Position,"Tomaszewski, Spain",true,Location,50,ES,,Tomaszewski,882,,false,118.48640413784044
Spain,,-84.04177843293041,Position,"Szewczyk, Spain",true,Location,50,ES,,Szewczyk,883,,true,120.06331801205545
Spain,,31.268571732905173,Position,"Mróz, Spain",true,Location,50,ES,,Mróz,884,,false,156.45429204364424
"United States of America",,6.987994727373319,Position,"Kowalczyk, United States of America",false,Location,50,US,,Kowalczyk,885,,true,3.926865915339646
Spain,,-37.90880887208042,Position,"Marciniak, Spain",true,Location,50,ES,,Marciniak,886,,true,131.72200620811844
Spain,,-83.37506037821181,Position,"Tomaszewski, Spain",true,Location,50,ES,,Tomaszewski,887,,false,34.43924142481657
"United States of America",,-32.10542384088298,Position,"Marciniak, United States of America",false,Location,50,US,,Marciniak,888,,false,169.30854442629516
"United States of America",,4.171866268844198,Position,"Krawczyk, United States of America",false,Location,50,US,,Krawczyk,889,,false,146.0195817640481
Spain,,-32.357682289014164,Position,"Baran, Spain",true,Location,50,ES,,Baran,890,,true,9.31898883992973
"United States of America",,-39.55699282233152,Position,"Kowalczyk, United States of America",false,Location,50,US,,Kowalczyk,891,,true,149.86705118827203
Poland,,41.96340530021371,Position,"Błaszczyk, Poland",true,Location,50,PL,,Błaszczyk,892,,false,29.578809762881455
Poland,,-23.657335069332746,Position,"Sawicki, Poland",true,Location,50,PL,,Sawicki,893,,false,60.71315414730049
Poland,,-26.68594556113058,Position,"Kołodziej, Poland",true,Location,50,PL,,Kołodziej,894,,true,49.56076317321898
Poland,,-26.747520233261874,Position,"Górski, Poland",true,Location,50,PL,,Górski,895,,false,159.6009609488841
Spain,,-69.2271147779565,Position,"Marciniak, Spain",true,Location,50,ES,,Marciniak,896,,false,180.223572718233
Spain,,11.318455358042485,Position,"Brzeziński, Spain",true,Location,50,ES,,Brzeziński,897,,true,171.45930979960937
Spain,,-29.552238645090895,Position,"Błaszczyk, Spain",true,Location,50,ES,,Błaszczyk,898,,false,108.93724798299726
Poland,,81.57350924147818,Position,"Krawczyk, Poland",true,Location,50,PL,,Krawczyk,899,,false,25.436324258556418
"United States of America",,-72.41704637681185,Position,"Bąk, United States of America",false,Location,50,US,,Bąk,900,,false,67.75673770549463
Spain,,-63.54258746713273,Position,"Sawicki, Spain",true,Location,50,ES,,Sawicki,901,,false,136.18430120193355
"United States of America",,-39.153132983896484,Position,"Stępień, United States of America",false,Location,50,US,,Stępień,902,,false,90.92389501864434
Poland,,8.703082320342247,Position,"Krajewska, Poland",true,Location,50,PL,,Krajewska,903,,false,27.546515178510223
"United States of America",,-2.0465311777460613,Position,"Stępień, United States of America",false,Location,50,US,,Stępień,904,,true,87.62702360975432
Spain,,-85.25322231958293,Position,"Bąk, Spain",true,Location,50,ES,,Bąk,905,,true,54.386834774182034
Poland,,-40.27541006413887,Position,"Górski, Poland",true,Location,50,PL,,Górski,906,,true,18.728045511035543
Poland,,-2.2106184374109006,Position,"Bąk, Poland",true,Location,50,PL,,Bąk,907,,false,62.62410902759691
Poland,,-39.064324715015864,Position,"Krawczyk, Poland",true,Location,50,PL,,Krawczyk,908,,false,103.37915692744899
Spain,,-9.612983072990303,Position,"Kołodziej, Spain",true,Location,50,ES,,Kołodziej,909,,true,157.88593630536408
"United States of America",,-68.19587055869002,Position,"Krawczyk, United States of America",false,Location,50,US,,Krawczyk,910,,false,63.19406869463114
"United States of America",,63.98139047624059,Position,"Górski, United States of America",false,Location,50,US,,Górski,911,,true,156.58019696646082
Spain,,6.777336982057065,Position,"Błaszczyk, Spain",true,Location,50,ES,,Błaszczyk,912,,false,91.91328753472422
Poland,,24.093793961162504,Position,"Brzeziński, Poland",true,Location,50,PL,,Brzeziński,913,,true,159.59770632278781
"United States of America",,71.35634566450065,Position,"Brzeziński, United States of America",false,Location,50,US,,Brzeziński,914,,true,37.30862867864698
Poland,,34.00140019968576,Position,"Krawczyk, Poland",true,Location,50,PL,,Krawczyk,915,,true,40.30578475898274
"United States of America",,84.05181755661795,Position,"Mróz, United States of America",false,Location,50,US,,Mróz,916,,true,5.408973756004557
Poland,,55.590438749894275,Position,"Pawlak, Poland",true,Location,50,PL,,Pawlak,917,,true,22.96984865112049
Poland,,72.21020258946922,Position,"Bąk, Poland",true,Location,50,PL,,Bąk,918,,true,85.9975345601101
Poland,,-19.261886368726948,Position,"Krajewska, Poland",true,Location,50,PL,,Krajewska,919,,true,26.249183572949068
Spain,,-7.628850390824667,Position,"Kołodziej, Spain",true,Location,50,ES,,Kołodziej,920,,true,148.73023781359052
Spain,,90.01356536788896,Position,"Kołodziej, Spain",true,Location,50,ES,,Kołodziej,921,,true,158.95286957195475
"United States of America",,61.021073439243196,Position,"Pawlak, United States of America",false,Location,50,US,,Pawlak,922,,true,1.1555619181256553
"United States of America",,-18.292061631788343,Position,"Brzeziński, United States of America",false,Location,50,US,,Brzeziński,923,,false,38.81325820240555
Poland,,71.09335724480482,Position,"Przybylski, Poland",true,Location,50,PL,,Przybylski,924,,false,158.37800731277216
"United States of America",,-20.795496540043075,Position,"Tomaszewski, United States of America",false,Location,50,US,,Tomaszewski,925,,true,7.636886125452463
Spain,,-60.667926908204365,Position,"Bąk, Spain",true,Location,50,ES,,Bąk,926,,false,67.10063720006971
"United States of America",,-14.51780195699834,Position,"Przybylski, United States of America",false,Location,50,US,,Przybylski,927,,true,31.826490470179145
"United States of America",,66.68410520705754,Position,"Stępień, United States of America",false,Location,50,US,,Stępień,928,,true,144.30640473517715
Poland,,-66.89083462225634,Position,"Kowalczyk, Poland",true,Location,50,PL,,Kowalczyk,929,,false,160.932896462392
Spain,,79.21357209978888,Position,"Szewczyk, Spain",true,Location,50,ES,,Szewczyk,930,,false,51.893825732682686
Spain,,72.42785746437903,Position,"Mazur, Spain",true,Location,50,ES,,Mazur,931,,true,3.5917272386925063
Spain,,-39.35714082123379,Position,"Krajewska, Spain",true,Location,50,ES,,Krajewska,932,,false,180.16926667404354
Poland,,69.759047224999,Position,"Brzeziński, Poland",true,Location,50,PL,,Brzeziński,933,,false,14.927506078950147
Poland,,27.51607453432932,Position,"Mróz, Poland",true,Location,50,PL,,Mróz,934,,false,64.21648654912109
Spain,,-6.640556048433098,Position,"Szewczyk, Spain",true,Location,50,ES,,Szewczyk,935,,true,37.266539770787084
Spain,,69.15375059554859,Position,"Górski, Spain",true,Location,50,ES,,Górski,936,,true,164.8133075847064
Poland,,-8.443999313537248,Position,"Baran, Poland",true,Location,50,PL,,Baran,937,,false,180.78988327779365
Spain,,64.02155623970538,Position,"Kołodziej, Spain",true,Location,50,ES,,Kołodziej,938,,false,162.74606038748908
Spain,,-8.050181743311569,Position,"Krawczyk, Spain",true,Location,50,ES,,Krawczyk,939,,true,115.57909758255678
"United States of America",,-57.12877598365036,Position,"Przybylski, United States of America",false,Location,50,US,,Przybylski,940,,false,132.08434349786555
Spain,,-36.166581416078984,Position,"Krawczyk, Spain",true,Location,50,ES,,Krawczyk,941,,false,104.3600091612312
Poland,,6.028495615869119,Position,"Marciniak, Poland",true,Location,50,PL,,Marciniak,942,,false,175.22179606403878
Spain,,74.99747881268718,Position,"Sawicki, Spain",true,Location,50,ES,,Sawicki,943,,false,47.133436330480244
Poland,,-15.499305889300445,Position,"Krawczyk, Poland",true,Location,50,PL,,Krawczyk,944,,false,45.26295136082668
"United States of America",,67.91653711368855,Position,"Przybylski, United States of America",false,Location,50,US,,Przybylski,945,,false,32.79697796878502
Spain,,14.155697561298524,Position,"Brzeziński, Spain",true,Location,50,ES,,Brzeziński,946,,false,143.64197192975175
Spain,,7.897973136860713,Position,"Błaszczyk, Spain",true,Location,50,ES,,Błaszczyk,947,,false,67.80808355983226
Poland,,-26.915654402213157,Position,"Kowalczyk, Poland",true,Location,50,PL,,Kowalczyk,948,,false,148.69599968260883
Poland,,81.15442623565178,Position,"Górski, Poland",true,Location,50,PL,,Górski,949,,false,40.91638474527611
Spain,,54.40007931091148,Position,"Sawicki, Spain",true,Location,50,ES,,Sawicki,950,,true,47.283851534290854
Spain,,4.917187783433377,Position,"Baran, Spain",true,Location,50,ES,,Baran,951,,true,11.001869263014438
Poland,,-48.847792550387,Position,"Szewczyk, Poland",true,Location,50,PL,,Szewczyk,952,,true,98.44046255909812
"United States of America",,-14.353560055562625,Position,"Baran, United States of America",false,Location,50,US,,Baran,953,,false,97.09558986565897
Poland,,-34.266401633580614,Position,"Krawczyk, Poland",true,Location,50,PL,,Krawczyk,954,,true,34.48790997770912
Poland,,-42.885924158831216,Position,"Tomaszewski, Poland",true,Location,50,PL,,Tomaszewski,955,,true,53.73092418288287
Poland,,-73.85131001591347,Position,"Brzeziński, Poland",true,Location,50,PL,,Brzeziński,956,,false,25.9858812807212
Poland,,-33.364330426816224,Position,"Wasilewska, Poland",true,Location,50,PL,,Wasilewska,957,,false,125.87586099171301
Spain,,-44.225550551417044,Position,"Marciniak, Spain",true,Location,50,ES,,Marciniak,958,,false,86.39765772998555
Poland,,-26.989478103972225,Position,"Kołodziej, Poland",true,Location,50,PL,,Kołodziej,959,,true,117.83066988427625
Poland,,-49.205252822910396,Position,"Bąk, Poland",true,Location,50,PL,,Bąk,960,,true,37.37191931269507
Spain,,73.79211656972251,Position,"Baran, Spain",true,Location,50,ES,,Baran,961,,false,155.64024536891543
"United States of America",,-55.68232034800843,Position,"Brzeziński, United States of America",false,Location,50,US,,Brzeziński,962,,true,72.09654850223575
"United States of America",,-15.643990009275754,Position,"Kołodziej, United States of America",false,Location,50,US,,Kołodziej,963,,false,118.76679408893715
Spain,,20.2957624661843,Position,"Tomaszewski, Spain",true,Location,50,ES,,Tomaszewski,964,,false,125.26740856420437
Poland,,-55.14173050606928,Position,"Sawicki, Poland",true,Location,50,PL,,Sawicki,965,,true,141.99607729119134
Poland,,20.760441782129746,Position,"Kołodziej, Poland",true,Location,50,PL,,Kołodziej,966,,true,113.83323996179882
"United States of America",,15.584712239324759,Position,"Marciniak, United States of America",false,Location,50,US,,Marciniak,967,,false,41.80905170801678
Spain,,-6.444608151588426,Position,"Górski, Spain",true,Location,50,ES,,Górski,968,,true,163.82728014291422
Poland,,-58.6203507106636,Position,"Brzeziński, Poland",true,Location,50,PL,,Brzeziński,969,,true,7.741082874828472
Spain,,-17.293060692059314,Position,"Błaszczyk, Spain",true,Location,50,ES,,Błaszczyk,970,,true,140.27680041090062
"United States of America",,45.81270003973131,Position,"Marciniak, United States of America",false,Location,50,US,,Marciniak,971,,true,137.5718486563687
"United States of America",,-28.19451992393418,Position,"Mróz, United States of America",false,Location,50,US,,Mróz,972,,true,63.39380043660593
Spain,,23.493054777166492,Position,"Błaszczyk, Spain",true,Location,50,ES,,Błaszczyk,973,,false,123.54191010161168
Spain,,-49.71167258803148,Position,"Brzeziński, Spain",true,Location,50,ES,,Brzeziński,974,,true,84.99308571877624
Spain,,66.47289689074825,Position,"Przybylski, Spain",true,Location,50,ES,,Przybylski,975,,true,126.17547450536854
"United States of America",,-15.68782278295366,Position,"Marciniak, United States of America",false,Location,50,US,,Marciniak,976,,false,26.35851785534011
"United States of America",,-24.004842615110462,Position,"Bąk, United States of America",false,Location,50,US,,Bąk,977,,true,145.70404222679971
"United States of America",,-67.01735889749477,Position,"Krajewska, United States of America",false,Location,50,US,,Krajewska,978,,false,60.5838270333042
"United States of America",,77.93544913402636,Position,"Krajewska, United States of America",false,Location,50,US,,Krajewska,979,,false,145.53191813302865
Poland,,48.06848331374076,Position,"Mróz, Poland",true,Location,50,PL,,Mróz,980,,true,166.75129117939554
Spain,,-62.835929478409,Position,"Bąk, Spain",true,Location,50,ES,,Bąk,981,,true,145.66199398541917
Spain,,71.96995148773485,Position,"Marciniak, Spain",true,Location,50,ES,,Marciniak,982,,true,65.17976009788656
"United States of America",,-5.288838052758564,Position,"Błaszczyk, United States of America",false,Location,50,US,,Błaszczyk,983,,false,70.50917153624239
"United States of America",,84.63331739027484,Position,"Tomaszewski, United States of America",false,Location,50,US,,Tomaszewski,984,,false,68.37289250246921
Spain,,46.05656014344936,Position,"Błaszczyk, Spain",true,Location,50,ES,,Błaszczyk,985,,false,47.06867721907806
"United States of America",,68.30791152949197,Position,"Błaszczyk, United States of America",false,Location,50,US,,Błaszczyk,986,,false,90.22922746666531
Poland,,17.085667468915346,Position,"Błaszczyk, Poland",true,Location,50,PL,,Błaszczyk,987,,true,28.977889884727574
"United States of America",,-53.47270326312391,Position,"Górski, United States of America",false,Location,50,US,,Górski,988,,true,168.53746536219555
"United States of America",,60.25357721240951,Position,"Tomaszewski, United States of America",false,Location,50,US,,Tomaszewski,989,,false,128.6128582822107
Poland,,-27.537214159225456,Position,"Tomaszewski, Poland",true,Location,50,PL,,Tomaszewski,990,,false,95.77366940278044
"United States of America",,81.28196833557132,Position,"Krajewska, United States of America",false,Location,50,US,,Krajewska,991,,true,98.99436827226215
"United States of America",,31.845364526392814,Position,"Przybylski, United States of America",false,Location,50,US,,Przybylski,992,,true,21.741375549787485
"United States of America",,22.276731391893463,Position,"Mazur, United States of America",false,Location,50,US,,Mazur,993,,false,146.94362486672335
Poland,,30.981229683370515,Position,"Marciniak, Poland",true,Location,50,PL,,Marciniak,994,,true,88.6513794620006
Spain,,-58.50098053403397,Position,"Tomaszewski, Spain",true,Location,50,ES,,Tomaszewski,995,,false,112.62370998755767
"United States of America",,-66.00355235394855,Position,"Przybylski, United States of America",false,Location,50,US,,Przybylski,996,,false,126.8247608134042
Poland,,21.14839612253074,Position,"Pawlak, Poland",true,Location,50,PL,,Pawlak,997,,false,109.3307293131937
"United States of America",,46.337864530310185,Position,"Przybylski, United States of America",false,Location,50,US,,Przybylski,998,,false,41.320979654529765
"United States of America",,34.424006207196555,Position,"Marciniak, United States of America",false,Location,50,US,,Marciniak,999,,true,175.1571022580452
"United States of America",,39.73026257116709,Position,"Krawczyk, United States of America",false,Location,50,US,,Krawczyk,1000,,false,109.44223738229823
Poland,,36.81808195296439,Position,"Tomaszewski, Poland",true,Location,50,PL,,Tomaszewski,1001,,false,159.93976245858076
"United States of America",,18.24384657319358,Position,"Mróz, United States of America",false,Location,50,US,,Mróz,1002,,true,158.24595207922326
"United States of America",,64.06597223753892,Position,"Górski, United States of America",false,Location,50,US,,Górski,1003,,true,19.72707833458462
Spain,,-7.138531304893775,Position,"Marciniak, Spain",true,Location,50,ES,,Marciniak,1004,,true,33.909149091096886
Spain,,-4.572292416264105,Position,"Przybylski, Spain",true,Location,50,ES,,Przybylski,1005,,false,165.85101295160285
Spain,,78.95164950271186,Position,"Wasilewska, Spain",true,Location,50,ES,,Wasilewska,1006,,false,51.0317048484531
Spain,,73.00844320382069,Position,"Marciniak, Spain",true,Location,50,ES,,Marciniak,1007,,true,68.57473716113076
Poland,,-67.6487036178977,Position,"Mróz, Poland",true,Location,50,PL,,Mróz,1008,,false,79.73978601450354
Spain,,27.638525520708342,Position,"Baran, Spain",true,Location,50,ES,,Baran,1009,,false,177.20098631406645
Poland,,-47.65892680963522,Position,"Mazur, Poland",true,Location,50,PL,,Mazur,1010,,false,134.75654021462253
Spain,,-57.571256009498114,Position,"Tomaszewski, Spain",true,Location,50,ES,,Tomaszewski,1011,,false,58.4727549950491
"United States of America",,-39.343192647984715,Position,"Marciniak, United States of America",false,Location,50,US,,Marciniak,1012,,false,17.44394355766769
"United States of America",,62.49220368329699,Position,"Mróz, United States of America",false,Location,50,US,,Mróz,1013,,true,85.0753995712058
Spain,,21.82180074132455,Position,"Kołodziej, Spain",true,Location,50,ES,,Kołodziej,1014,,true,96.18792315182027
Poland,,5.481581427737368,Position,"Przybylski, Poland",true,Location,50,PL,,Przybylski,1015,,false,2.0581238111274254
Poland,,40.50795916595405,Position,"Przybylski, Poland",true,Location,50,PL,,Przybylski,1016,,true,144.39826914083594
"United States of America",,-74.47112214816411,Position,"Mróz, United States of America",false,Location,50,US,,Mróz,1017,,true,104.0326648374136
Spain,,-16.662488499216664,Position,"Krajewska, Spain",true,Location,50,ES,,Krajewska,1018,,false,8.825492474143703
Poland,,73.89466990034455,Position,"Sawicki, Poland",true,Location,50,PL,,Sawicki,1019,,false,157.07856008793811
"United States of America",,29.522635467517475,Position,"Szewczyk, United States of America",false,Location,50,US,,Szewczyk,1020,,true,137.85877146919796
"United States of America",,69.13469652767608,Position,"Stępień, United States of America",false,Location,50,US,,Stępień,1021,,true,131.38664936076654
Spain,,-25.993166624363354,Position,"Marciniak, Spain",true,Location,50,ES,,Marciniak,1022,,false,121.96217903030426
"United States of America",,14.873921768411918,Position,"Kołodziej, United States of America",false,Location,50,US,,Kołodziej,1023,,true,159.80640957663522
"United States of America",,-30.680263119066254,Position,"Wasilewska, United States of America",false,Location,50,US,,Wasilewska,1024,,false,110.43091929821318
Spain,,31.341631285135804,Position,"Krajewska, Spain",true,Location,50,ES,,Krajewska,1025,,true,62.62773754972082
Spain,,62.18617307060728,Position,"Brzeziński, Spain",true,Location,50,ES,,Brzeziński,1026,,true,102.20487710171001
"United States of America",,-7.334029378413732,Position,"Kowalczyk, United States of America",false,Location,50,US,,Kowalczyk,1027,,false,58.124030758938865
Spain,,67.0405926653745,Position,"Kowalczyk, Spain",true,Location,50,ES,,Kowalczyk,1028,,true,53.563719519438116
"United States of America",,90.55210250855558,Position,"Przybylski, United States of America",false,Location,50,US,,Przybylski,1029,,false,110.61101080503866
Spain,,2.9896927665561464,Position,"Krawczyk, Spain",true,Location,50,ES,,Krawczyk,1030,,false,180.14602949797282
Spain,,-17.62437385458597,Position,"Tomaszewski, Spain",true,Location,50,ES,,Tomaszewski,1031,,true,52.034516308268245
Poland,,33.43875970706688,Position,"Brzeziński, Poland",true,Location,50,PL,,Brzeziński,1032,,true,53.884183945924384
Poland,,44.9111652739214,Position,"Górski, Poland",true,Location,50,PL,,Górski,1033,,true,40.3904857213508
Poland,,-58.44849984025899,Position,"Marciniak, Poland",true,Location,50,PL,,Marciniak,1034,,true,3.12759540247208
Poland,,18.88591938881291,Position,"Marciniak, Poland",true,Location,50,PL,,Marciniak,1035,,false,138.6016961526777
Spain,,20.948397475060588,Position,"Wasilewska, Spain",true,Location,50,ES,,Wasilewska,1036,,true,92.43861103319436
Spain,,-49.70115562359317,Position,"Mróz, Spain",true,Location,50,ES,,Mróz,1037,,true,77.82833301726713
"United States of America",,76.56525161346036,Position,"Kowalczyk, United States of America",false,Location,50,US,,Kowalczyk,1038,,true,90.28873314226509
Poland,,-26.02158861842142,Position,"Kołodziej, Poland",true,Location,50,PL,,Kołodziej,1039,,true,179.57326661945206
"United States of America",,20.391405543675106,Position,"Mróz, United States of America",false,Location,50,US,,Mróz,1040,,false,92.15706629231761
Spain,,-86.8346677534702,Position,"Marciniak, Spain",true,Location,50,ES,,Marciniak,1041,,false,141.35794089080125
Poland,,56.886317602704025,Position,"Marciniak, Poland",true,Location,50,PL,,Marciniak,1042,,false,152.3386763748621
Spain,,53.001422542447926,Position,"Kowalczyk, Spain",true,Location,50,ES,,Kowalczyk,1043,,false,50.19104994499396
Poland,,50.233397680302716,Position,"Mróz, Poland",true,Location,50,PL,,Mróz,1044,,true,19.107453917218518
"United States of America",,61.68165628749131,Position,"Błaszczyk, United States of America",false,Location,50,US,,Błaszczyk,1045,,false,64.52978966133841
Spain,,15.231673792259826,Position,"Kołodziej, Spain",true,Location,50,ES,,Kołodziej,1046,,false,167.74613451760095
Spain,,-10.316183281474181,Position,"Kowalczyk, Spain",true,Location,50,ES,,Kowalczyk,1047,,true,115.94216794488077
Spain,,78.54877866634203,Position,"Błaszczyk, Spain",true,Location,50,ES,,Błaszczyk,1048,,false,69.35565913014896
Poland,,53.92849296540447,Position,"Stępień, Poland",true,Location,50,PL,,Stępień,1049,,false,83.2189622868154
Spain,,-60.73734520809779,Position,"Brzeziński, Spain",true,Location,50,ES,,Brzeziński,1050,,false,16.28670535202454
Poland,,30.942012130702878,Position,"Krajewska, Poland",true,Location,50,PL,,Krajewska,1051,,false,157.2551597502703
Spain,,-69.89500889283794,Position,"Marciniak, Spain",true,Location,50,ES,,Marciniak,1052,,false,113.49804453449445
"United States of America",,61.09579856706995,Position,"Marciniak, United States of America",false,Location,50,US,,Marciniak,1053,,false,1.6232913312189323
"United States of America",,-82.4142647223321,Position,"Błaszczyk, United States of America",false,Location,50,US,,Błaszczyk,1054,,false,32.13964816021267
Spain,,-29.222107826030978,Position,"Bąk, Spain",true,Location,50,ES,,Bąk,1055,,false,156.3948503309693
Spain,,19.226116137011743,Position,"Bąk, Spain",true,Location,50,ES,,Bąk,1056,,false,150.18283796671645
Poland,,-40.08410245398082,Position,"Przybylski, Poland",true,Location,50,PL,,Przybylski,1057,,false,21.43096562251594
Spain,,42.456509236720706,Position,"Mróz, Spain",true,Location,50,ES,,Mróz,1058,,true,177.9754203665008
Poland,,-41.38477233772906,Position,"Bąk, Poland",true,Location,50,PL,,Bąk,1059,,false,71.05993363214532
Spain,,-6.653995492263107,Position,"Brzeziński, Spain",true,Location,50,ES,,Brzeziński,1060,,true,126.18671536492562
Spain,,29.802667354714288,Position,"Brzeziński, Spain",true,Location,50,ES,,Brzeziński,1061,,true,109.78654727958428
Poland,,63.22200370515441,Position,"Mazur, Poland",true,Location,50,PL,,Mazur,1062,,true,111.72545145716029
"United States of America",,-25.32769091063504,Position,"Stępień, United States of America",false,Location,50,US,,Stępień,1063,,true,108.43716470107552
Poland,,19.411077464901226,Position,"Tomaszewski, Poland",true,Location,50,PL,,Tomaszewski,1064,,false,59.86306624935022
Spain,,-20.58046514584406,Position,"Tomaszewski, Spain",true,Location,50,ES,,Tomaszewski,1065,,false,75.9343127014479
"United States of America",,15.78648561923977,Position,"Błaszczyk, United States of America",false,Location,50,US,,Błaszczyk,1066,,true,109.97545870695149
Poland,,-21.781579276359594,Position,"Przybylski, Poland",true,Location,50,PL,,Przybylski,1067,,false,162.7160450661639
Spain,,78.5429347920763,Position,"Wasilewska, Spain",true,Location,50,ES,,Wasilewska,1068,,false,2.028262863410955
"United States of America",,50.64884093692757,Position,"Tomaszewski, United States of America",false,Location,50,US,,Tomaszewski,1069,,true,37.66776975286371
Spain,,21.635948046002895,Position,"Krajewska, Spain",true,Location,50,ES,,Krajewska,1070,,false,142.17380950189107
Spain,,64.81184027425803,Position,"Górski, Spain",true,Location,50,ES,,Górski,1071,,false,20.317945641158104
"United States of America",,-80.37903797945461,Position,"Sawicki, United States of America",false,Location,50,US,,Sawicki,1072,,true,137.60241922211105
"United States of America",,29.185354534126503,Position,"Szewczyk, United States of America",false,Location,50,US,,Szewczyk,1073,,true,98.96434160720423
Spain,,29.206368334441777,Position,"Wasilewska, Spain",true,Location,50,ES,,Wasilewska,1074,,false,46.09626310680203
Spain,,13.86696223270205,Position,"Mróz, Spain",true,Location,50,ES,,Mróz,1075,,true,172.34352309714063
Poland,,14.695094413512123,Position,"Marciniak, Poland",true,Location,50,PL,,Marciniak,1076,,true,109.57100292166078
Spain,,0.22648050521507912,Position,"Krawczyk, Spain",true,Location,50,ES,,Krawczyk,1077,,true,96.43404116102629
Poland,,-46.36903374152425,Position,"Marciniak, Poland",true,Location,50,PL,,Marciniak,1078,,false,180.2585467704491
Spain,,6.1482839178487865,Position,"Krajewska, Spain",true,Location,50,ES,,Krajewska,1079,,false,41.992404991992736
Poland,,-77.61117681379264,Position,"Krajewska, Poland",true,Location,50,PL,,Krajewska,1080,,false,131.08370639229477
"United States of America",,35.98188459337295,Position,"Sawicki, United States of America",false,Location,50,US,,Sawicki,1081,,false,136.46108467606223
"United States of America",,-7.848422381628424,Position,"Wasilewska, United States of America",false,Location,50,US,,Wasilewska,1082,,false,164.21814351914634
Spain,,-7.961159808345542,Position,"Brzeziński, Spain",true,Location,50,ES,,Brzeziński,1083,,true,72.95897397735897
Poland,,-77.29729189316298,Position,"Krawczyk, Poland",true,Location,50,PL,,Krawczyk,1084,,true,161.75700383029087
"United States of America",,28.975183784125477,Position,"Błaszczyk, United States of America",false,Location,50,US,,Błaszczyk,1085,,true,156.16735621910456
"United States of America",,32.7292891098798,Position,"Sawicki, United States of America",false,Location,50,US,,Sawicki,1086,,false,59.956702029321825
"United States of America",,-57.31922941719283,Position,"Bąk, United States of America",false,Location,50,US,,Bąk,1087,,false,52.05820884159482
Poland,,66.87847789409881,Position,"Pawlak, Poland",true,Location,50,PL,,Pawlak,1088,,true,166.496788354153
Poland,,25.36030253131699,Position,"Bąk, Poland",true,Location,50,PL,,Bąk,1089,,true,44.57660817343135
Spain,,14.639548372347548,Position,"Górski, Spain",true,Location,50,ES,,Górski,1090,,false,66.78449852357377
Spain,,3.3356897444151485,Position,"Sawicki, Spain",true,Location,50,ES,,Sawicki,1091,,true,21.585481485034347
"United States of America",,62.233870626138355,Position,"Baran, United States of America",false,Location,50,US,,Baran,1092,,true,176.40747381575835
Spain,,9.72523623850411,Position,"Kowalczyk, Spain",true,Location,50,ES,,Kowalczyk,1093,,true,95.60829725524775
"United States of America",,68.08681276318015,Position,"Marciniak, United States of America",false,Location,50,US,,Marciniak,1094,,true,96.45831118416586
Spain,,-24.43752109612221,Position,"Bąk, Spain",true,Location,50,ES,,Bąk,1095,,false,46.16419341553119
Spain,,18.128445266287827,Position,"Krajewska, Spain",true,Location,50,ES,,Krajewska,1096,,true,2.6040299819624506
Spain,,-51.89415731183518,Position,"Wasilewska, Spain",true,Location,50,ES,,Wasilewska,1097,,false,161.78002357065074
Spain,,29.124006060676635,Position,"Brzeziński, Spain",true,Location,50,ES,,Brzeziński,1098,,true,97.45418153081337
Poland,,-46.93979435800104,Position,"Kołodziej, Poland",true,Location,50,PL,,Kołodziej,1099,,false,31.085173786045495
Spain,,-47.52957922695425,Position,"Kołodziej, Spain",true,Location,50,ES,,Kołodziej,1100,,false,127.9932829238129
"United States of America",,36.182250420073146,Position,"Marciniak, United States of America",false,Location,50,US,,Marciniak,1101,,true,85.74737100496166
Poland,,-37.58817628282456,Position,"Kołodziej, Poland",true,Location,50,PL,,Kołodziej,1102,,true,51.58637336016971
Spain,,-0.7262251746175821,Position,"Wasilewska, Spain",true,Location,50,ES,,Wasilewska,1103,,false,110.39174818477747
Spain,,-14.575219357583094,Position,"Mróz, Spain",true,Location,50,ES,,Mróz,1104,,false,98.34092640342934
Poland,,58.88068141195194,Position,"Górski, Poland",true,Location,50,PL,,Górski,1105,,false,50.060169073581406
"United States of America",,-69.39685087824095,Position,"Krajewska, United States of America",false,Location,50,US,,Krajewska,1106,,false,59.41404280196262
Poland,,58.10999240662284,Position,"Krajewska, Poland",true,Location,50,PL,,Krajewska,1107,,true,177.21439345684462
Spain,,-65.7672507533909,Position,"Kowalczyk, Spain",true,Location,50,ES,,Kowalczyk,1108,,true,10.190674540221949
Poland,,70.85321098455424,Position,"Bąk, Poland",true,Location,50,PL,,Bąk,1109,,false,73.76399745164952
"United States of America",,9.387647117001464,Position,"Górski, United States of America",false,Location,50,US,,Górski,1110,,true,71.12694222618532
Poland,,67.36172717819238,Position,"Marciniak, Poland",true,Location,50,PL,,Marciniak,1111,,true,70.10884596279486
"United States of America",,-35.697188261993475,Position,"Marciniak, United States of America",false,Location,50,US,,Marciniak,1112,,false,59.45187343377233
Poland,,-53.44181188624441,Position,"Stępień, Poland",true,Location,50,PL,,Stępień,1113,,true,101.72590880934452
Spain,,-36.51824457620112,Position,"Bąk, Spain",true,Location,50,ES,,Bąk,1114,,false,131.85160547709268
Spain,,-72.31223815865457,Position,"Mróz, Spain",true,Location,50,ES,,Mróz,1115,,true,164.4016014783903
Spain,,14.983460750056423,Position,"Kołodziej, Spain",true,Location,50,ES,,Kołodziej,1116,,false,37.72210316668089
Poland,,-81.0860355125684,Position,"Sawicki, Poland",true,Location,50,PL,,Sawicki,1117,,false,5.813181730220567
"United States of America",,35.099187418195854,Position,"Przybylski, United States of America",false,Location,50,US,,Przybylski,1118,,true,64.56940864182721
Spain,,-69.75393971885072,Position,"Brzeziński, Spain",true,Location,50,ES,,Brzeziński,1119,,true,171.79673212882176
Spain,,-73.32222711232077,Position,"Mróz, Spain",true,Location,50,ES,,Mróz,1120,,false,165.6610757277088
Poland,,-73.25142137793767,Position,"Tomaszewski, Poland",true,Location,50,PL,,Tomaszewski,1121,,false,129.3041373272868
Spain,,-2.312853314078964,Position,"Stępień, Spain",true,Location,50,ES,,Stępień,1122,,true,93.08791741843793
Poland,,-61.671975122253166,Position,"Wasilewska, Poland",true,Location,50,PL,,Wasilewska,1123,,true,150.747865511488
Poland,,69.2100076787246,Position,"Wasilewska, Poland",true,Location,50,PL,,Wasilewska,1124,,true,172.98225643977688
"United States of America",,-19.481941789055767,Position,"Wasilewska, United States of America",false,Location,50,US,,Wasilewska,1125,,true,155.15980031745747
Spain,,7.963362752879206,Position,"Bąk, Spain",true,Location,50,ES,,Bąk,1126,,true,151.75691394256097
Poland,,7.591496367506409,Position,"Kowalczyk, Poland",true,Location,50,PL,,Kowalczyk,1127,,true,173.34928511437684
"United States of America",,-36.39562082148837,Position,"Sawicki, United States of America",false,Location,50,US,,Sawicki,1128,,false,95.87866681987404
Poland,,0.01599645883700873,Position,"Wasilewska, Poland",true,Location,50,PL,,Wasilewska,1129,,true,97.03540445520207
"United States of America",,-43.46087181101237,Position,"Krajewska, United States of America",false,Location,50,US,,Krajewska,1130,,false,17.87053976007268
"United States of America",,-74.2599150817298,Position,"Sawicki, United States of America",false,Location,50,US,,Sawicki,1131,,false,26.750044383610632
Poland,,36.68616188220871,Position,"Baran, Poland",true,Location,50,PL,,Baran,1132,,true,153.9492034051374
Poland,,-23.952957350510758,Position,"Marciniak, Poland",true,Location,50,PL,,Marciniak,1133,,true,17.160581073892075
"United States of America",,35.6634909859213,Position,"Błaszczyk, United States of America",false,Location,50,US,,Błaszczyk,1134,,true,94.94692487954718
"United States of America",,84.74649727627593,Position,"Mazur, United States of America",false,Location,50,US,,Mazur,1135,,true,10.344995559324072
Poland,,-71.83473369701515,Position,"Przybylski, Poland",true,Location,50,PL,,Przybylski,1136,,true,9.941929123600849
Poland,,86.2869964147472,Position,"Pawlak, Poland",true,Location,50,PL,,Pawlak,1137,,true,7.4672023160170005
Poland,,38.873775663379746,Position,"Stępień, Poland",true,Location,50,PL,,Stępień,1138,,false,5.326716666392194
"United States of America",,-10.032458300735655,Position,"Tomaszewski, United States of America",false,Location,50,US,,Tomaszewski,1139,,true,134.24662967910186
Spain,,28.112460704794614,Position,"Mróz, Spain",true,Location,50,ES,,Mróz,1140,,false,113.88072164041245
Poland,,78.80212572336495,Position,"Brzeziński, Poland",true,Location,50,PL,,Brzeziński,1141,,false,24.593711057990678
Poland,,20.587534410791235,Position,"Brzeziński, Poland",true,Location,50,PL,,Brzeziński,1142,,true,159.78196616857647
"United States of America",,-13.251566271860781,Position,"Krawczyk, United States of America",false,Location,50,US,,Krawczyk,1143,,false,137.79165179358148
"United States of America",,-64.01162700082699,Position,"Błaszczyk, United States of America",false,Location,50,US,,Błaszczyk,1144,,false,95.3916907557002
Spain,,-3.0495898047841905,Position,"Mróz, Spain",true,Location,50,ES,,Mróz,1145,,false,119.64492394482659
"United States of America",,-79.07884029306378,Position,"Szewczyk, United States of America",false,Location,50,US,,Szewczyk,1146,,false,114.07667100863996
"United States of America",,65.36411552845976,Position,"Marciniak, United States of America",false,Location,50,US,,Marciniak,1147,,true,77.08621341599458
Spain,,66.6354830087796,Position,"Brzeziński, Spain",true,Location,50,ES,,Brzeziński,1148,,true,73.29576951321233
Spain,,20.63728525670473,Position,"Marciniak, Spain",true,Location,50,ES,,Marciniak,1149,,false,19.836124706297063
"United States of America",,-30.729738927039364,Position,"Krajewska, United States of America",false,Location,50,US,,Krajewska,1150,,true,56.67051739087036
Spain,,-32.60485152795721,Position,"Tomaszewski, Spain",true,Location,50,ES,,Tomaszewski,1151,,true,8.84363589706153
Poland,,3.893181119199639,Position,"Górski, Poland",true,Location,50,PL,,Górski,1152,,false,117.78388705024648
Spain,,-40.851342480608004,Position,"Mróz, Spain",true,Location,50,ES,,Mróz,1153,,false,141.40045709529187
Spain,,-75.56303137504845,Position,"Wasilewska, Spain",true,Location,50,ES,,Wasilewska,1154,,true,52.00708664446013
Poland,,-25.11406111061737,Position,"Krajewska, Poland",true,Location,50,PL,,Krajewska,1155,,true,58.018645191534226
Poland,,-82.25388434126285,Position,"Stępień, Poland",true,Location,50,PL,,Stępień,1156,,false,23.741123802328502
Poland,,62.03373857797058,Position,"Stępień, Poland",true,Location,50,PL,,Stępień,1157,,false,4.38842248299505
"United States of America",,-39.66065435370401,Position,"Pawlak, United States of America",false,Location,50,US,,Pawlak,1158,,true,35.07805941164231
Poland,,-1.1170934402954629,Position,"Krajewska, Poland",true,Location,50,PL,,Krajewska,1159,,false,29.991904508373455
Poland,,3.1659333473646285,Position,"Krawczyk, Poland",true,Location,50,PL,,Krawczyk,1160,,true,151.03626923015167
Poland,,-27.23957149849018,Position,"Błaszczyk, Poland",true,Location,50,PL,,Błaszczyk,1161,,true,20.23846313193847
"United States of America",,78.58803643500809,Position,"Wasilewska, United States of America",false,Location,50,US,,Wasilewska,1162,,true,159.20472740393657
Spain,,59.2002142710752,Position,"Krajewska, Spain",true,Location,50,ES,,Krajewska,1163,,true,126.30883699119903
Spain,,3.0566499886701024,Position,"Marciniak, Spain",true,Location,50,ES,,Marciniak,1164,,true,150.84316784813035
Spain,,-64.88414040380277,Position,"Baran, Spain",true,Location,50,ES,,Baran,1165,,false,179.2474833809797
Poland,,42.46532760057997,Position,"Kołodziej, Poland",true,Location,50,PL,,Kołodziej,1166,,true,58.228268967864096
Spain,,43.51080152433977,Position,"Krawczyk, Spain",true,Location,50,ES,,Krawczyk,1167,,true,24.226612577079784
"United States of America",,17.963681575436908,Position,"Pawlak, United States of America",false,Location,50,US,,Pawlak,1168,,true,44.310272373524015
Poland,,81.5747899082833,Position,"Mazur, Poland",true,Location,50,PL,,Mazur,1169,,false,70.32027492915603
Poland,,62.09176929386777,Position,"Sawicki, Poland",true,Location,50,PL,,Sawicki,1170,,false,154.5502049191148
"United States of America",,-62.889701091898445,Position,"Marciniak, United States of America",false,Location,50,US,,Marciniak,1171,,true,141.57320352422113
"United States of America",,49.45683906189558,Position,"Szewczyk, United States of America",false,Location,50,US,,Szewczyk,1172,,false,20.14482079225309
"United States of America",,13.10847997089735,Position,"Baran, United States of America",false,Location,50,US,,Baran,1173,,true,4.626680921246312
Poland,,-28.184491077977917,Position,"Marciniak, Poland",true,Location,50,PL,,Marciniak,1174,,false,44.71438165356319
Poland,,-50.048480980914555,Position,"Brzeziński, Poland",true,Location,50,PL,,Brzeziński,1175,,true,84.6724056820534
Spain,,-67.6527005579328,Position,"Kowalczyk, Spain",true,Location,50,ES,,Kowalczyk,1176,,false,68.92802244648476
Poland,,20.156703155342157,Position,"Błaszczyk, Poland",true,Location,50,PL,,Błaszczyk,1177,,true,164.04547715898843
"United States of America",,-64.89049863681032,Position,"Krawczyk, United States of America",false,Location,50,US,,Krawczyk,1178,,true,80.47194519354444
Poland,,12.797190808292157,Position,"Marciniak, Poland",true,Location,50,PL,,Marciniak,1179,,false,1.338785285037226
Poland,,89.14883076469158,Position,"Stępień, Poland",true,Location,50,PL,,Stępień,1180,,false,74.22766319733508
"United States of America",,90.73559460395467,Position,"Brzeziński, United States of America",false,Location,50,US,,Brzeziński,1181,,true,170.52380379222876
Poland,,-34.488250418448935,Position,"Baran, Poland",true,Location,50,PL,,Baran,1182,,true,0.5207057714355512
Spain,,-30.411465217236973,Position,"Mróz, Spain",true,Location,50,ES,,Mróz,1183,,true,108.19635529338885
Spain,,-34.556642105311504,Position,"Przybylski, Spain",true,Location,50,ES,,Przybylski,1184,,true,120.82454578453245
Poland,,-44.096079671168816,Position,"Kowalczyk, Poland",true,Location,50,PL,,Kowalczyk,1185,,true,69.73113795094723
Poland,,-58.60626708535415,Position,"Tomaszewski, Poland",true,Location,50,PL,,Tomaszewski,1186,,false,97.3602527702112
Spain,,28.37741741678211,Position,"Wasilewska, Spain",true,Location,50,ES,,Wasilewska,1187,,false,41.82501792968068
Spain,,-80.938976066867,Position,"Pawlak, Spain",true,Location,50,ES,,Pawlak,1188,,false,101.61917678494409
"United States of America",,29.06049168183091,Position,"Krawczyk, United States of America",false,Location,50,US,,Krawczyk,1189,,false,147.6366150498879
Spain,,27.592164796553845,Position,"Sawicki, Spain",true,Location,50,ES,,Sawicki,1190,,true,131.95429379354914
"United States of America",,-7.580308357779174,Position,"Krawczyk, United States of America",false,Location,50,US,,Krawczyk,1191,,true,90.4885518119738
Poland,,73.23495142998553,Position,"Mróz, Poland",true,Location,50,PL,,Mróz,1192,,true,103.03507718371267
Poland,,63.79532431137196,Position,"Pawlak, Poland",true,Location,50,PL,,Pawlak,1193,,false,120.88870406084432
"United States of America",,14.189281691202211,Position,"Wasilewska, United States of America",false,Location,50,US,,Wasilewska,1194,,true,123.14156824526923
Poland,,1.2773444475593294,Position,"Wasilewska, Poland",true,Location,50,PL,,Wasilewska,1195,,false,73.44815470989117
Spain,,6.140811102129604,Position,"Błaszczyk, Spain",true,Location,50,ES,,Błaszczyk,1196,,true,16.985161673782105
"United States of America",,2.2672627657687485,Position,"Stępień, United States of America",false,Location,50,US,,Stępień,1197,,true,97.12605392421534
Spain,,-71.02326647405283,Position,"Szewczyk, Spain",true,Location,50,ES,,Szewczyk,1198,,true,124.98677277969314
Spain,,-53.97277836954447,Position,"Kołodziej, Spain",true,Location,50,ES,,Kołodziej,1199,,true,6.11536482660588
Spain,,-63.518615340257995,Position,"Brzeziński, Spain",true,Location,50,ES,,Brzeziński,1200,,false,130.71755965189453
Spain,,-70.66934767259137,Position,"Błaszczyk, Spain",true,Location,50,ES,,Błaszczyk,1201,,true,135.59851234921564
"United States of America",,-18.61165112688039,Position,"Marciniak, United States of America",false,Location,50,US,,Marciniak,1202,,true,132.512888110807
